AXCTc7b3ecca-b2a8-4412-943a-a38d7a04952a
HFFTYFRTYPE:Google Pixel 9a 16
HFRFWFIRMWAREVERSION:0.9.12.3
HFPLTPILOTINCHARGE:Puxdroid
HFCCLCOMPETITIONCLASS:FAI-3
HFGTYGLIDERTYPE:SWING Stellar RS
HODTM100GPSDATUM:WGS-84
HFALPALTPRESSURE:ISA
HFALG:GEO
HFDTEDATE:240526,01
LXCTDEVICE eyJhcHAiOnsibmFtZSI6IlhDVHJhY2siLCJ2ZXJzaW9uQ29kZSI6OTEyMzAsInZlc
LXCTDEVICE nNpb25OYW1lIjoiMC45LjEyLjMifSwiZGV2aWNlIjp7ImJ1aWxkSWQiOiJDUDFBLj
LXCTDEVICE I2MDQwNS4wMDUiLCJjcHVBQkkiOiJhcm02NC12OGEiLCJkZXZRdWV1ZUJ1aWxkIjo
LXCTDEVICE iZjIzYWFmMTQ4ZTVmYTBjYzBhMDUwM2VhODE2NTk3YzliYzQ4MDgwZCIsImRldmlj
LXCTDEVICE ZVN0cmluZyI6Ikdvb2dsZSBQaXhlbCA5YSAxNiIsImRpc3BsYXkiOnsiaCI6MjQyN
LXCTDEVICE CwibW0iOjE2LjUzNTQzMywidyI6MTA4MH0sImZpbmdlcnByaW50IjoiZ29vZ2xlL3
LXCTDEVICE RlZ3UvdGVndToxNi9DUDFBLjI2MDQwNS4wMDUvMTUwMDE5NjM6dXNlci9yZWxlYXN
LXCTDEVICE lLWtleXMiLCJoYXJkd2FyZSI6InRlZ3UiLCJtYW51ZmFjdHVyZXIiOiJHb29nbGUi
LXCTDEVICE LCJtZW1vcnkiOnsiYWR2ZXJ0aXNlZE1lbSI6ODU4OTkzNDU5MiwiYXZhaWxNZW0iO
LXCTDEVICE jU0MDMwMzM2MCwiZm9yZWdyb3VuZEFwcFRocmVzaG9sZCI6NzU0OTc0NzIsImxvd0
LXCTDEVICE 1lbW9yeSI6ZmFsc2UsInRocmVzaG9sZCI6MjI2NDkyNDE2LCJ0b3RhbE1lbSI6Nzk
LXCTDEVICE zODgxMzk1Mn0sIm1vZGVsIjoiUGl4ZWwgOWEiLCJwcm9kdWN0IjoidGVndSJ9LCJk
LXCTDEVICE ZXZpY2VJZCI6ImM3YjNlY2NhLWIyYTgtNDQxMi05NDNhLWEzOGQ3YTA0OTUyYSIsI
LXCTDEVICE m9zIjp7InNkayI6MzYsInRpbWV6b25lIjoiRXVyb3BlL01hZHJpZCIsInR5cGUiOi
LXCTDEVICE JBbmRyb2lkIiwidmVyc2lvbiI6IjE2In19
LXCTSENSOR Sensors: GPS: h Bluetooth LE Baro: h Bluetooth LE
I023636LAD3737LOD
LXCTEARTHMODEL WGS84
C240526112556000000000002 Competition task
C4151949N00049115ETAKEOFF ?
C4151948N00049115ESTART D05
C4147763N00048343ETURN G07
C4201036N00044716ETURN B02
C4201036N00044716EFINISH B02
C0000000N00000000ELANDING
B1125564151949N00049115EA004930061814
B1125574151949N00049115EA004930061803
B1125584151948N00049115EA004930061891
B1125594151948N00049115EA004930061890
B1126004151948N00049114EA004930061877
B1126014151948N00049114EA004930061745
B1126024151948N00049114EA004930061714
B1126034151947N00049114EA004920061772
B1126044151947N00049113EA004930061759
B1126054151947N00049113EA004930061746
B1126064151947N00049113EA004920061735
B1126074151947N00049113EA004920061714
B1126084151946N00049113EA004920061793
B1126094151946N00049113EA004920061792
B1126104151946N00049113EA004920061793
B1126114151947N00049113EA004920061705
B1126124151947N00049113EA004920061608
B1126134151946N00049113EA004920061778
B1126144151946N00049113EA004910061704
B1126154151944N00049113EA004900061660
B1126164151943N00049113EA004900061632
B1126174151942N00049114EA004910061620
B1126184151941N00049114EA004900061519
B1126194151939N00049115EA004890061413
B1126204151936N00049115EA004890061436
B1126214151933N00049116EA004900061553
B1126224151931N00049117EA004910061615
B1126234151929N00049118EA004930061805
B1126244151926N00049119EA004940061990
B1126254151924N00049119EA004930061971
B1126264151922N00049119EA004920061947
B1126274151920N00049120EA004920061969
B1126284151917N00049123EA004930062094
B1126294151915N00049124EA004940062067
B1126304151913N00049125EA004950062000
B1126314151909N00049124EA004950062176
B1126324151906N00049124EA004950062203
B1126334151902N00049124EA004970062316
B1126344151898N00049125EA004990062482
LXCTACTIVITY UNKNOWN 41
B1126354151897N00049125EA005020062604
B1126364151895N00049124EA005020062679
B1126374151894N00049123EA005000062516
B1126384151891N00049122EA004980062566
B1126394151888N00049121EA004980062598
B1126404151886N00049120EA004990062625
B1126414151883N00049118EA005010062775
B1126424151881N00049116EA005030062952
B1126434151880N00049112EA005050063107
B1126444151879N00049108EA005070063312
B1126454151878N00049102EA005080063448
B1126464151877N00049097EA005080063575
B1126474151876N00049093EA005080063551
B1126484151874N00049090EA005080063690
B1126494151872N00049088EA005090063698
B1126504151871N00049089EA005090063718
B1126514151870N00049092EA005100063769
B1126524151871N00049097EA005100063793
B1126534151874N00049102EA005100063894
B1126544151878N00049107EA005110063977
B1126554151882N00049112EA005120064038
B1126564151884N00049118EA005120064090
B1126574151885N00049122EA005120064097
B1126584151885N00049126EA005120064096
B1126594151885N00049129EA005120064112
B1127004151883N00049129EA005130064267
B1127014151881N00049128EA005140064390
B1127024151880N00049124EA005160064575
B1127034151880N00049119EA005190064769
B1127044151881N00049114EA005230064849
B1127054151883N00049109EA005250065046
B1127064151885N00049104EA005250065291
B1127074151887N00049098EA005250065346
B1127084151887N00049094EA005250065401
LXCTACTIVITY IN_VEHICLE 93
LXCTACTIVITY STILL 100
B1127094151885N00049092EA005270065550
B1127104151884N00049093EA005300065630
B1127114151884N00049095EA005330065807
B1127124151884N00049098EA005350066039
B1127134151884N00049101EA005340066137
B1127144151883N00049104EA005330066283
B1127154151883N00049107EA005310066315
B1127164151882N00049111EA005310066566
B1127174151882N00049116EA005310066555
B1127184151882N00049122EA005320066660
B1127194151882N00049127EA005330066841
LXCTACTIVITY IN_VEHICLE 89
B1127204151881N00049130EA005340066978
B1127214151881N00049132EA005350067004
B1127224151880N00049132EA005350067027
B1127234151879N00049131EA005340067131
B1127244151878N00049128EA005340067170
B1127254151878N00049123EA005340067199
B1127264151880N00049119EA005340067011
B1127274151882N00049114EA005340066912
B1127284151883N00049109EA005330066892
B1127294151884N00049104EA005310066752
B1127304151884N00049099EA005310066602
LXCTACTIVITY UNKNOWN 41
B1127314151882N00049094EA005320066688
B1127324151881N00049091EA005350066746
B1127334151880N00049089EA005370066737
B1127344151879N00049088EA005380066857
B1127354151878N00049088EA005370066775
B1127364151877N00049089EA005360066773
B1127374151876N00049091EA005360066782
B1127384151876N00049093EA005360066738
B1127394151876N00049096EA005360066619
B1127404151877N00049100EA005350066507
B1127414151878N00049105EA005340066470
B1127424151880N00049110EA005320066270
B1127434151882N00049115EA005300066171
B1127444151884N00049119EA005300066007
B1127454151884N00049122EA005290065928
B1127464151883N00049124EA005280065876
B1127474151882N00049124EA005270065769
B1127484151881N00049124EA005270065732
B1127494151880N00049122EA005270065716
B1127504151879N00049120EA005280065812
B1127514151878N00049117EA005290065915
B1127524151877N00049114EA005310066165
B1127534151877N00049111EA005340066380
LXCTACTIVITY IN_VEHICLE 76
B1127544151878N00049106EA005350066586
B1127554151880N00049101EA005350066522
B1127564151881N00049095EA005350066637
B1127574151881N00049091EA005350066600
B1127584151879N00049088EA005350066714
B1127594151876N00049088EA005380066796
B1128004151875N00049090EA005420066930
B1128014151874N00049091EA005460067090
B1128024151875N00049091EA005470067161
B1128034151876N00049090EA005460067117
B1128044151876N00049090EA005440067114
LXCTACTIVITY UNKNOWN 41
B1128054151875N00049091EA005420067174
B1128064151875N00049093EA005410067108
B1128074151874N00049097EA005410067143
B1128084151874N00049101EA005420067157
B1128094151875N00049106EA005420067255
B1128104151877N00049111EA005420067214
B1128114151879N00049116EA005410067106
B1128124151880N00049122EA005400067183
B1128134151882N00049128EA005410067183
B1128144151885N00049134EA005420067223
B1128154151888N00049140EA005430067320
B1128164151891N00049145EA005440067463
LXCTACTIVITY IN_VEHICLE 88
B1128174151895N00049150EA005460067624
B1128184151898N00049155EA005470067794
B1128194151902N00049160EA005480067963
B1128204151906N00049165EA005500068010
B1128214151909N00049169EA005510068124
B1128224151911N00049173EA005510068155
B1128234151912N00049177EA005500068189
B1128244151913N00049182EA005490068013
B1128254151912N00049186EA005470067942
B1128264151910N00049189EA005460067880
B1128274151908N00049190EA005450067783
B1128284151906N00049189EA005440067669
B1128294151904N00049188EA005420067541
B1128304151902N00049185EA005400067434
B1128314151899N00049182EA005380067292
B1128324151897N00049178EA005380067138
B1128334151894N00049175EA005390067183
B1128344151892N00049171EA005400067277
B1128354151891N00049168EA005420067412
B1128364151889N00049165EA005440067662
B1128374151888N00049162EA005460067759
B1128384151887N00049161EA005460067764
B1128394151887N00049160EA005450067703
B1128404151886N00049159EA005420067627
B1128414151885N00049159EA005390067512
B1128424151883N00049158EA005360067429
B1128434151881N00049158EA005360067344
B1128444151880N00049157EA005360067212
B1128454151879N00049155EA005360067126
B1128464151878N00049153EA005340067058
B1128474151877N00049151EA005330066958
B1128484151876N00049149EA005310066746
B1128494151875N00049147EA005300066644
B1128504151874N00049145EA005300066561
B1128514151874N00049142EA005300066409
B1128524151873N00049141EA005290066341
B1128534151872N00049139EA005280066256
B1128544151871N00049137EA005260066069
B1128554151870N00049136EA005250065951
B1128564151869N00049134EA005240065841
B1128574151868N00049132EA005230065760
B1128584151867N00049130EA005220065583
B1128594151866N00049129EA005200065385
B1129004151865N00049129EA005180065058
B1129014151863N00049132EA005150064871
B1129024151862N00049136EA005140064712
B1129034151861N00049141EA005150064667
B1129044151862N00049148EA005140064540
B1129054151864N00049154EA005140064546
B1129064151866N00049161EA005140064491
B1129074151869N00049167EA005130064255
B1129084151872N00049173EA005110064128
B1129094151874N00049180EA005090063933
B1129104151875N00049186EA005070063735
B1129114151874N00049191EA005040063565
B1129124151872N00049194EA005010063297
B1129134151870N00049195EA004990063182
B1129144151869N00049193EA004990063004
B1129154151868N00049190EA004980062901
B1129164151867N00049186EA004980062843
B1129174151867N00049182EA004980062716
B1129184151866N00049179EA004970062660
B1129194151866N00049175EA004950062436
B1129204151865N00049171EA004940062399
B1129214151865N00049167EA004930062177
B1129224151865N00049163EA004910062031
B1129234151864N00049158EA004900061954
B1129244151863N00049153EA004910061975
B1129254151863N00049148EA004930062016
B1129264151863N00049144EA004960062246
B1129274151864N00049141EA004990062346
B1129284151865N00049138EA004990062467
B1129294151866N00049135EA004980062331
B1129304151866N00049130EA004970062335
B1129314151865N00049125EA004970062358
B1129324151864N00049121EA004990062529
B1129334151862N00049118EA005010062768
B1129344151861N00049116EA005020062728
B1129354151860N00049116EA005020062811
B1129364151859N00049116EA005020062711
B1129374151858N00049116EA005010062713
B1129384151856N00049116EA005000062680
B1129394151855N00049114EA004990062536
B1129404151853N00049112EA004980062471
B1129414151852N00049109EA004960062302
B1129424151850N00049106EA004960062260
B1129434151849N00049102EA004950062247
B1129444151848N00049099EA004950062154
B1129454151847N00049095EA004930061979
B1129464151846N00049092EA004910061763
B1129474151844N00049088EA004870061498
B1129484151842N00049085EA004840061239
B1129494151839N00049084EA004830061143
B1129504151836N00049083EA004840061135
B1129514151833N00049083EA004860061272
B1129524151831N00049083EA004870061353
B1129534151829N00049083EA004870061278
B1129544151827N00049084EA004850061194
B1129554151825N00049084EA004830060898
B1129564151823N00049084EA004800060637
B1129574151820N00049084EA004780060536
B1129584151817N00049084EA004790060525
LXCTACTIVITY UNKNOWN 41
B1129594151814N00049084EA004800060672
B1130004151812N00049083EA004810060683
B1130014151811N00049081EA004800060507
B1130024151809N00049079EA004790060413
B1130034151807N00049076EA004780060402
B1130044151805N00049071EA004780060519
B1130054151803N00049067EA004800060680
B1130064151803N00049061EA004820060828
B1130074151802N00049057EA004840060946
B1130084151800N00049054EA004840061099
B1130094151798N00049054EA004850061091
B1130104151796N00049054EA004870061184
B1130114151795N00049056EA004890061371
B1130124151795N00049058EA004910061448
B1130134151795N00049062EA004920061494
B1130144151796N00049066EA004910061466
B1130154151797N00049071EA004920061496
B1130164151800N00049076EA004920061418
B1130174151803N00049081EA004920061585
B1130184151808N00049084EA004930061599
B1130194151814N00049087EA004930061666
B1130204151820N00049090EA004940061626
B1130214151824N00049094EA004930061665
B1130224151827N00049099EA004910061545
B1130234151828N00049104EA004900061565
B1130244151828N00049108EA004890061546
B1130254151827N00049111EA004890061445
B1130264151825N00049111EA004880061497
B1130274151824N00049109EA004860061413
B1130284151821N00049105EA004840061381
B1130294151818N00049099EA004840061398
B1130304151816N00049095EA004860061351
B1130314151815N00049091EA004880061420
B1130324151814N00049087EA004890061581
B1130334151814N00049082EA004880061589
B1130344151814N00049078EA004860061476
B1130354151814N00049074EA004850061221
B1130364151813N00049069EA004830061136
B1130374151812N00049065EA004820061013
B1130384151810N00049061EA004810060966
B1130394151809N00049058EA004810060813
B1130404151807N00049055EA004800060692
B1130414151806N00049052EA004780060481
B1130424151805N00049049EA004750060206
B1130434151801N00049048EA004720060181
LXCTACTIVITY IN_VEHICLE 78
LXCTACTIVITY STILL 100
B1130444151797N00049048EA004710060084
B1130454151793N00049049EA004720059997
B1130464151790N00049049EA004760060259
B1130474151788N00049049EA004790060320
B1130484151786N00049047EA004810060462
B1130494151785N00049046EA004810060410
B1130504151783N00049046EA004800060466
B1130514151782N00049049EA004790060320
B1130524151781N00049052EA004800060410
B1130534151780N00049054EA004810060416
B1130544151778N00049056EA004810060481
B1130554151777N00049056EA004800060404
LXCTACTIVITY UNKNOWN 41
B1130564151774N00049055EA004800060478
B1130574151772N00049054EA004790060319
B1130584151769N00049053EA004800060348
B1130594151766N00049052EA004790060485
B1131004151764N00049050EA004790060439
B1131014151761N00049049EA004790060470
B1131024151759N00049047EA004810060522
LXCTACTIVITY IN_VEHICLE 83
B1131034151757N00049045EA004830060714
B1131044151755N00049043EA004850060971
B1131054151754N00049040EA004880061268
B1131064151753N00049039EA004890061344
B1131074151751N00049039EA004880061398
B1131084151750N00049042EA004870061324
B1131094151748N00049046EA004880061444
B1131104151746N00049049EA004910061658
B1131114151744N00049051EA004920061684
B1131124151743N00049051EA004930061730
B1131134151741N00049049EA004920061775
B1131144151739N00049047EA004930061898
B1131154151738N00049045EA004940061921
B1131164151736N00049041EA004940062090
B1131174151736N00049036EA004930062061
B1131184151736N00049031EA004930062080
B1131194151736N00049026EA004920061983
B1131204151735N00049022EA004910061892
B1131214151734N00049018EA004890061638
B1131224151731N00049016EA004890061597
B1131234151729N00049016EA004880061552
B1131244151727N00049017EA004880061475
B1131254151726N00049020EA004870061344
B1131264151726N00049024EA004860061203
B1131274151726N00049029EA004850061150
B1131284151728N00049033EA004840061029
B1131294151730N00049039EA004830060970
B1131304151733N00049043EA004820060849
B1131314151736N00049048EA004810060708
B1131324151738N00049053EA004800060659
B1131334151741N00049059EA004780060574
B1131344151745N00049065EA004770060473
B1131354151749N00049070EA004790060488
B1131364151754N00049075EA004800060503
LXCTACTIVITY UNKNOWN 41
B1131374151758N00049079EA004820060511
B1131384151763N00049082EA004810060425
B1131394151769N00049085EA004800060438
B1131404151776N00049088EA004810060409
B1131414151782N00049091EA004820060564
B1131424151788N00049093EA004820060583
B1131434151795N00049095EA004810060413
B1131444151801N00049097EA004800060461
B1131454151808N00049098EA004800060415
B1131464151813N00049099EA004810060595
B1131474151819N00049100EA004800060432
B1131484151824N00049101EA004780060461
B1131494151830N00049102EA004760060234
B1131504151836N00049104EA004740060135
B1131514151842N00049107EA004730060006
B1131524151846N00049111EA004730059992
B1131534151851N00049115EA004730059913
B1131544151854N00049119EA004730059866
B1131554151857N00049124EA004720059714
B1131564151858N00049129EA004710059713
B1131574151857N00049133EA004690059657
B1131584151855N00049136EA004680059512
B1131594151852N00049136EA004680059527
LXCTACTIVITY IN_VEHICLE 88
B1132004151849N00049135EA004680059470
B1132014151847N00049131EA004670059378
B1132024151845N00049128EA004660059270
B1132034151843N00049124EA004650059135
B1132044151840N00049121EA004630059047
B1132054151837N00049119EA004620058930
B1132064151834N00049116EA004610058831
B1132074151831N00049113EA004610058740
B1132084151828N00049110EA004610058740
B1132094151825N00049107EA004610058742
B1132104151822N00049104EA004620058754
B1132114151819N00049101EA004620058875
B1132124151816N00049098EA004630058868
B1132134151813N00049096EA004640058936
B1132144151809N00049094EA004650059179
B1132154151806N00049093EA004680059354
B1132164151804N00049092EA004720059601
B1132174151802N00049091EA004740059832
B1132184151800N00049091EA004740059874
B1132194151799N00049093EA004730059815
B1132204151797N00049097EA004720059851
B1132214151796N00049101EA004720059887
LXCTACTIVITY UNKNOWN 41
B1132224151797N00049106EA004730059845
B1132234151799N00049111EA004730059821
B1132244151801N00049115EA004730059881
B1132254151804N00049119EA004730059880
B1132264151807N00049123EA004720059842
B1132274151808N00049127EA004710059799
B1132284151808N00049132EA004690059662
B1132294151806N00049135EA004680059693
B1132304151804N00049136EA004680059546
B1132314151801N00049136EA004670059592
B1132324151799N00049134EA004660059551
B1132334151797N00049130EA004650059407
B1132344151794N00049126EA004640059376
B1132354151792N00049122EA004630059145
B1132364151790N00049118EA004610059015
B1132374151787N00049114EA004600058986
B1132384151785N00049110EA004590058747
B1132394151783N00049106EA004580058705
B1132404151780N00049102EA004590058754
B1132414151778N00049098EA004610058827
B1132424151776N00049095EA004630058915
B1132434151774N00049092EA004650059115
B1132444151772N00049089EA004640059163
B1132454151771N00049085EA004640059105
B1132464151769N00049081EA004640059116
B1132474151766N00049078EA004640059136
B1132484151763N00049077EA004630059156
B1132494151760N00049079EA004620059093
B1132504151759N00049083EA004610058920
B1132514151758N00049087EA004600058889
B1132524151759N00049093EA004590058753
B1132534151761N00049098EA004580058689
B1132544151765N00049103EA004580058536
B1132554151769N00049107EA004590058564
B1132564151774N00049110EA004590058550
B1132574151779N00049111EA004600058689
B1132584151785N00049113EA004600058672
B1132594151792N00049114EA004590058654
B1133004151799N00049115EA004590058561
B1133014151807N00049115EA004580058515
B1133024151814N00049116EA004590058630
B1133034151820N00049117EA004590058691
B1133044151826N00049119EA004600058743
B1133054151830N00049122EA004590058695
B1133064151834N00049126EA004590058583
B1133074151838N00049130EA004580058443
B1133084151841N00049134EA004570058354
B1133094151843N00049139EA004560058230
B1133104151843N00049143EA004540058178
B1133114151842N00049148EA004520058040
B1133124151840N00049150EA004520057907
B1133134151837N00049151EA004520057901
B1133144151834N00049149EA004520057824
B1133154151831N00049146EA004510057766
B1133164151828N00049143EA004500057684
B1133174151825N00049140EA004490057583
B1133184151822N00049137EA004480057474
B1133194151819N00049134EA004490057492
B1133204151817N00049130EA004480057456
B1133214151815N00049126EA004480057346
B1133224151813N00049122EA004470057206
B1133234151809N00049119EA004470057362
B1133244151806N00049116EA004500057515
B1133254151803N00049114EA004530057856
B1133264151801N00049113EA004560057977
B1133274151800N00049113EA004580058006
B1133284151797N00049113EA004560057967
B1133294151794N00049114EA004560057940
B1133304151791N00049115EA004560057925
B1133314151788N00049118EA004570057954
B1133324151786N00049123EA004570057990
B1133334151786N00049128EA004570058027
B1133344151786N00049134EA004590058245
B1133354151787N00049139EA004610058448
B1133364151789N00049144EA004630058520
B1133374151791N00049146EA004630058689
B1133384151794N00049149EA004620058583
B1133394151797N00049152EA004600058485
B1133404151800N00049156EA004580058218
B1133414151800N00049162EA004550058173
B1133424151799N00049167EA004550058122
B1133434151796N00049170EA004550058022
B1133444151792N00049170EA004550057966
B1133454151789N00049168EA004540057917
B1133464151785N00049165EA004530057883
B1133474151783N00049160EA004520057705
B1133484151780N00049154EA004510057775
B1133494151778N00049147EA004520057795
B1133504151777N00049140EA004530057881
B1133514151777N00049133EA004540057841
B1133524151777N00049126EA004540057935
LXCTACTIVITY IN_VEHICLE 90
B1133534151777N00049119EA004530057829
B1133544151776N00049112EA004510057697
B1133554151776N00049104EA004500057529
B1133564151774N00049097EA004500057590
B1133574151773N00049089EA004510057647
B1133584151771N00049083EA004520057695
B1133594151770N00049078EA004520057670
B1134004151769N00049072EA004510057557
B1134014151768N00049067EA004500057419
B1134024151765N00049063EA004480057297
B1134034151763N00049060EA004460057102
B1134044151759N00049057EA004450057170
B1134054151756N00049054EA004450057011
B1134064151752N00049051EA004460057064
B1134074151749N00049049EA004460057051
B1134084151746N00049047EA004450056950
B1134094151743N00049045EA004440056950
B1134104151740N00049043EA004430056822
B1134114151737N00049041EA004430056906
B1134124151734N00049039EA004440057039
B1134134151732N00049038EA004450057021
B1134144151730N00049036EA004460057113
B1134154151727N00049034EA004450057097
B1134164151725N00049033EA004450057035
B1134174151722N00049032EA004450057164
B1134184151720N00049031EA004450057107
B1134194151717N00049031EA004450057031
B1134204151714N00049030EA004450057062
B1134214151711N00049028EA004450057054
B1134224151708N00049025EA004440057057
B1134234151705N00049022EA004440056987
B1134244151703N00049020EA004430056952
B1134254151701N00049018EA004420056724
B1134264151698N00049017EA004400056674
B1134274151696N00049016EA004390056519
B1134284151693N00049017EA004380056451
B1134294151690N00049018EA004380056490
B1134304151688N00049019EA004370056336
B1134314151685N00049021EA004370056351
B1134324151682N00049022EA004370056382
B1134334151680N00049023EA004380056320
B1134344151677N00049023EA004380056396
B1134354151675N00049024EA004390056456
B1134364151672N00049025EA004390056498
B1134374151670N00049027EA004390056411
B1134384151667N00049028EA004390056422
B1134394151664N00049028EA004390056437
B1134404151661N00049028EA004390056463
B1134414151659N00049027EA004390056410
B1134424151656N00049024EA004380056389
B1134434151654N00049022EA004380056255
B1134444151652N00049020EA004370056102
B1134454151649N00049018EA004360056137
B1134464151646N00049018EA004350056073
B1134474151644N00049018EA004340055916
B1134484151641N00049019EA004330055740
B1134494151638N00049019EA004310055563
B1134504151635N00049019EA004300055464
B1134514151632N00049019EA004270055153
B1134524151629N00049018EA004250054919
B1134534151625N00049018EA004230054741
B1134544151621N00049016EA004210054678
B1134554151618N00049014EA004210054428
B1134564151614N00049012EA004200054374
B1134574151611N00049010EA004180054221
B1134584151607N00049008EA004170053952
B1134594151603N00049006EA004140053755
B1135004151599N00049004EA004110053428
B1135014151594N00049002EA004080053238
B1135024151589N00049000EA004060053035
B1135034151583N00048998EA004030052890
B1135044151578N00048995EA004020052657
B1135054151573N00048993EA004020052626
B1135064151568N00048991EA004020052526
B1135074151563N00048989EA004020052556
B1135084151559N00048987EA004010052412
B1135094151554N00048984EA004010052397
B1135104151550N00048982EA004000052382
B1135114151546N00048979EA003990052286
B1135124151543N00048976EA003990052119
B1135134151539N00048974EA003970051924
B1135144151534N00048972EA003940051784
B1135154151529N00048970EA003910051497
B1135164151524N00048969EA003890051292
B1135174151519N00048967EA003870051176
B1135184151514N00048965EA003860051059
B1135194151509N00048964EA003850050941
B1135204151504N00048962EA003850050841
B1135214151499N00048960EA003840050842
B1135224151494N00048958EA003850050847
B1135234151489N00048957EA003860050897
B1135244151485N00048956EA003890050865
B1135254151482N00048954EA003920050806
B1135264151478N00048952EA003950050893
B1135274151476N00048949EA003980050869
B1135284151474N00048947EA004000051090
B1135294151473N00048943EA004000051043
B1135304151471N00048938EA003990051198
B1135314151470N00048934EA004000051312
B1135324151467N00048930EA004010051395
B1135334151465N00048928EA004010051457
B1135344151463N00048929EA004010051401
LXCTACTIVITY UNKNOWN 41
B1135354151460N00048931EA004020051570
B1135364151459N00048933EA004040051727
B1135374151458N00048937EA004060051970
B1135384151459N00048940EA004070052058
B1135394151461N00048945EA004070052142
B1135404151464N00048949EA004070052249
B1135414151468N00048953EA004080052359
B1135424151473N00048956EA004090052456
B1135434151478N00048957EA004100052688
B1135444151484N00048958EA004100052752
B1135454151490N00048958EA004110052733
B1135464151496N00048958EA004120052801
B1135474151501N00048958EA004120053092
B1135484151507N00048959EA004140053290
B1135494151513N00048960EA004170053556
B1135504151518N00048962EA004200053829
B1135514151521N00048965EA004220054097
B1135524151524N00048969EA004240054180
B1135534151527N00048972EA004240054318
B1135544151528N00048977EA004250054453
B1135554151528N00048981EA004260054558
B1135564151526N00048985EA004260054792
B1135574151523N00048985EA004260054879
B1135584151520N00048982EA004270054937
B1135594151517N00048977EA004290055084
B1136004151517N00048971EA004310055211
B1136014151517N00048963EA004320055469
B1136024151518N00048957EA004320055411
B1136034151518N00048950EA004300055435
B1136044151517N00048944EA004290055370
B1136054151516N00048938EA004280055235
B1136064151514N00048934EA004270055125
B1136074151511N00048932EA004270055184
B1136084151509N00048932EA004270055112
B1136094151506N00048933EA004280055155
B1136104151504N00048936EA004290055170
B1136114151504N00048939EA004300055214
B1136124151504N00048943EA004310055293
B1136134151506N00048947EA004300055349
B1136144151508N00048953EA004300055341
B1136154151510N00048958EA004310055385
B1136164151513N00048963EA004310055464
B1136174151517N00048967EA004310055313
B1136184151521N00048970EA004310055333
B1136194151526N00048973EA004300055204
B1136204151530N00048977EA004300055392
B1136214151535N00048981EA004310055405
B1136224151538N00048985EA004320055439
B1136234151541N00048989EA004320055409
B1136244151543N00048994EA004310055423
B1136254151544N00048999EA004310055587
B1136264151545N00049005EA004320055546
B1136274151544N00049010EA004330055627
B1136284151541N00049013EA004330055699
B1136294151538N00049014EA004330055668
B1136304151535N00049014EA004330055600
B1136314151531N00049012EA004340055744
B1136324151528N00049010EA004350055801
B1136334151525N00049007EA004360055920
B1136344151522N00049002EA004370056079
B1136354151520N00048998EA004370056062
B1136364151518N00048993EA004370056180
B1136374151517N00048987EA004370056014
B1136384151515N00048981EA004360056064
B1136394151514N00048975EA004360056006
B1136404151512N00048970EA004370056063
B1136414151511N00048966EA004380056040
B1136424151510N00048962EA004370056022
B1136434151508N00048959EA004360055824
B1136444151505N00048958EA004340055815
B1136454151501N00048960EA004340055898
B1136464151499N00048965EA004350055851
B1136474151499N00048970EA004360055937
B1136484151501N00048976EA004360055934
B1136494151504N00048981EA004360055985
B1136504151509N00048984EA004370056039
B1136514151514N00048986EA004370056014
B1136524151519N00048986EA004360055913
B1136534151524N00048984EA004350055898
B1136544151530N00048982EA004340055731
B1136554151535N00048978EA004330055623
B1136564151539N00048973EA004320055566
B1136574151542N00048967EA004300055388
B1136584151544N00048961EA004290055270
B1136594151545N00048954EA004290055134
B1137004151544N00048948EA004290055042
B1137014151542N00048942EA004300055179
B1137024151540N00048938EA004320055344
B1137034151537N00048934EA004330055595
B1137044151535N00048930EA004350055638
B1137054151532N00048927EA004360055777
B1137064151530N00048925EA004360055705
B1137074151527N00048924EA004360055726
B1137084151524N00048924EA004360055738
B1137094151521N00048925EA004360055799
B1137104151520N00048928EA004360055730
B1137114151519N00048931EA004350055654
B1137124151519N00048935EA004340055569
B1137134151520N00048940EA004340055559
B1137144151522N00048945EA004350055622
B1137154151525N00048948EA004370055703
B1137164151528N00048950EA004380055860
B1137174151533N00048950EA004390055904
B1137184151537N00048949EA004410056045
B1137194151542N00048947EA004420056207
B1137204151546N00048945EA004430056361
B1137214151551N00048941EA004430056440
B1137224151555N00048934EA004440056549
B1137234151557N00048927EA004450056675
B1137244151557N00048920EA004460056794
B1137254151556N00048914EA004460056884
B1137264151555N00048909EA004470056824
B1137274151553N00048904EA004460056897
B1137284151552N00048900EA004460056763
B1137294151550N00048896EA004440056685
B1137304151548N00048893EA004430056527
B1137314151545N00048891EA004440056548
B1137324151542N00048891EA004450056650
B1137334151539N00048890EA004460056699
B1137344151537N00048891EA004460056724
B1137354151534N00048892EA004460056734
B1137364151531N00048893EA004460056759
B1137374151529N00048896EA004460056730
B1137384151527N00048899EA004460056791
B1137394151527N00048903EA004450056753
B1137404151528N00048908EA004450056644
B1137414151530N00048913EA004450056665
B1137424151533N00048917EA004450056698
B1137434151538N00048921EA004460056703
B1137444151542N00048924EA004470056741
B1137454151547N00048926EA004470056733
B1137464151552N00048927EA004460056776
B1137474151558N00048928EA004460056751
B1137484151564N00048928EA004460056864
B1137494151570N00048929EA004470056979
B1137504151575N00048932EA004480056999
B1137514151579N00048937EA004490057073
B1137524151582N00048942EA004510057163
B1137534151584N00048946EA004530057346
B1137544151585N00048950EA004550057442
B1137554151585N00048953EA004540057458
B1137564151584N00048958EA004530057472
B1137574151583N00048963EA004530057400
B1137584151580N00048967EA004540057512
B1137594151576N00048969EA004550057734
B1138004151572N00048968EA004560057816
B1138014151568N00048965EA004570057914
B1138024151565N00048961EA004590058030
B1138034151563N00048956EA004600058171
B1138044151563N00048950EA004600058258
B1138054151564N00048944EA004580058265
B1138064151566N00048937EA004560058262
B1138074151568N00048929EA004560058396
B1138084151570N00048922EA004570058325
B1138094151570N00048916EA004570058436
B1138104151568N00048911EA004550058489
B1138114151566N00048908EA004550058425
B1138124151562N00048906EA004550058474
B1138134151559N00048904EA004550058416
B1138144151555N00048902EA004550058581
B1138154151552N00048899EA004560058572
B1138164151549N00048896EA004560058565
B1138174151546N00048894EA004560058566
B1138184151543N00048893EA004560058557
B1138194151540N00048893EA004570058577
B1138204151538N00048894EA004570058511
B1138214151535N00048895EA004580058592
B1138224151533N00048897EA004580058591
B1138234151532N00048900EA004580058540
B1138244151531N00048903EA004580058469
B1138254151531N00048908EA004580058574
B1138264151532N00048913EA004580058522
B1138274151532N00048917EA004590058547
B1138284151531N00048921EA004590058575
B1138294151529N00048924EA004580058483
B1138304151527N00048926EA004570058420
B1138314151524N00048926EA004570058424
B1138324151521N00048925EA004580058435
B1138334151518N00048923EA004580058464
B1138344151516N00048920EA004580058419
B1138354151513N00048918EA004570058445
B1138364151510N00048916EA004570058372
B1138374151507N00048913EA004550058199
B1138384151505N00048911EA004530057905
B1138394151501N00048908EA004500057788
B1138404151498N00048906EA004480057562
B1138414151495N00048903EA004460057438
B1138424151492N00048901EA004450057207
B1138434151488N00048899EA004440057178
B1138444151485N00048897EA004440057058
B1138454151482N00048895EA004430056939
B1138464151479N00048894EA004420056722
B1138474151476N00048892EA004400056616
B1138484151472N00048891EA004380056482
B1138494151469N00048889EA004370056218
B1138504151465N00048888EA004350056243
B1138514151461N00048886EA004360056178
B1138524151458N00048885EA004360056122
B1138534151454N00048883EA004360056096
B1138544151451N00048882EA004350055981
B1138554151448N00048880EA004340055877
B1138564151445N00048879EA004320055664
B1138574151442N00048877EA004310055568
B1138584151439N00048875EA004290055359
B1138594151436N00048873EA004280055238
LXCTACTIVITY IN_VEHICLE 88
B1139004151433N00048871EA004270055216
B1139014151430N00048869EA004270055116
B1139024151427N00048867EA004260055027
B1139034151424N00048865EA004250054849
B1139044151421N00048864EA004230054662
B1139054151418N00048862EA004210054465
B1139064151415N00048861EA004190054242
B1139074151411N00048860EA004160054182
B1139084151408N00048859EA004140053914
B1139094151404N00048858EA004130053733
B1139104151400N00048856EA004120053657
B1139114151396N00048854EA004120053698
B1139124151393N00048853EA004120053561
B1139134151390N00048851EA004110053355
B1139144151387N00048850EA004090053242
B1139154151384N00048848EA004070053016
B1139164151380N00048846EA004040052859
B1139174151376N00048845EA004020052694
B1139184151373N00048844EA004010052531
B1139194151369N00048842EA004000052358
B1139204151365N00048841EA003990052275
B1139214151362N00048839EA003970052019
B1139224151358N00048838EA003960051955
B1139234151354N00048837EA003950051793
B1139244151351N00048836EA003930051735
B1139254151347N00048835EA003920051559
B1139264151343N00048835EA003920051591
B1139274151340N00048834EA003920051540
B1139284151336N00048832EA003920051499
B1139294151333N00048832EA003920051542
B1139304151330N00048832EA003930051514
B1139314151327N00048833EA003930051523
B1139324151324N00048834EA003930051579
B1139334151322N00048837EA003930051434
B1139344151320N00048840EA003920051417
B1139354151317N00048843EA003930051497
B1139364151315N00048846EA003930051363
B1139374151313N00048847EA003920051346
B1139384151311N00048848EA003920051200
B1139394151308N00048847EA003900051146
B1139404151305N00048846EA003880050967
B1139414151302N00048845EA003870050863
B1139424151299N00048843EA003860050783
B1139434151297N00048840EA003850050637
B1139444151294N00048837EA003830050596
B1139454151292N00048834EA003810050342
B1139464151289N00048830EA003790050175
B1139474151286N00048826EA003760049987
B1139484151283N00048823EA003750049883
B1139494151280N00048820EA003740049676
B1139504151277N00048818EA003740049551
B1139514151274N00048815EA003720049327
B1139524151270N00048813EA003700049182
B1139534151267N00048810EA003690049029
B1139544151263N00048809EA003670048851
B1139554151259N00048807EA003650048768
LXCTACTIVITY UNKNOWN 41
B1139564151255N00048806EA003640048579
B1139574151251N00048806EA003620048490
B1139584151248N00048804EA003610048209
B1139594151244N00048803EA003590048109
B1140004151239N00048803EA003570047990
B1140014151235N00048802EA003560047882
B1140024151231N00048801EA003550047673
B1140034151227N00048800EA003550047573
B1140044151224N00048799EA003540047403
B1140054151220N00048798EA003530047435
B1140064151216N00048797EA003520047366
B1140074151212N00048796EA003510047295
LXCTACTIVITY IN_VEHICLE 86
B1140084151209N00048794EA003510047149
B1140094151206N00048793EA003500047003
B1140104151202N00048792EA003490046952
B1140114151198N00048791EA003480046858
B1140124151194N00048791EA003460046634
B1140134151190N00048790EA003440046415
B1140144151186N00048789EA003420046302
B1140154151182N00048788EA003410046122
B1140164151178N00048787EA003400046059
B1140174151175N00048787EA003390045808
B1140184151171N00048787EA003370045744
B1140194151167N00048786EA003360045582
B1140204151164N00048784EA003340045324
B1140214151160N00048782EA003330045282
B1140224151157N00048779EA003310045193
B1140234151155N00048775EA003300045037
B1140244151153N00048771EA003290044802
B1140254151151N00048766EA003270044711
B1140264151149N00048760EA003260044657
B1140274151148N00048754EA003250044439
B1140284151147N00048748EA003230044249
B1140294151146N00048742EA003210044077
B1140304151146N00048736EA003190043834
B1140314151145N00048729EA003170043689
B1140324151145N00048723EA003150043523
B1140334151144N00048716EA003150043348
B1140344151143N00048710EA003150043349
B1140354151142N00048705EA003140043255
B1140364151141N00048700EA003130043065
B1140374151140N00048695EA003110042966
B1140384151139N00048691EA003090042610
B1140394151137N00048686EA003070042519
B1140404151134N00048683EA003050042454
B1140414151131N00048680EA003030042239
LXCTACTIVITY UNKNOWN 41
B1140424151127N00048679EA003020042181
B1140434151124N00048677EA003020042015
B1140444151120N00048676EA003020041942
B1140454151116N00048675EA003010041852
B1140464151112N00048674EA002990041646
B1140474151108N00048674EA002970041425
B1140484151103N00048674EA002940041286
B1140494151099N00048674EA002920041047
B1140504151095N00048674EA002900040843
B1140514151091N00048673EA002880040664
B1140524151087N00048672EA002850040352
B1140534151083N00048671EA002820040112
B1140544151078N00048671EA002810039960
B1140554151074N00048671EA002810039824
B1140564151070N00048672EA002800039712
B1140574151066N00048673EA002790039524
B1140584151062N00048675EA002780039312
B1140594151057N00048677EA002750039176
B1141004151053N00048680EA002730038925
B1141014151048N00048683EA002720038860
B1141024151044N00048684EA002720038738
B1141034151040N00048685EA002720038657
B1141044151036N00048685EA002700038488
B1141054151033N00048685EA002690038315
B1141064151029N00048684EA002680038269
B1141074151026N00048683EA002690038229
B1141084151022N00048682EA002690038287
B1141094151019N00048681EA002700038240
B1141104151016N00048678EA002720038147
B1141114151014N00048675EA002740038002
B1141124151012N00048670EA002760038047
B1141134151011N00048666EA002780038010
B1141144151010N00048661EA002800038014
B1141154151009N00048656EA002820038176
B1141164151010N00048651EA002830038238
B1141174151011N00048647EA002820038300
B1141184151010N00048642EA002810038364
B1141194151008N00048638EA002800038396
B1141204151006N00048636EA002800038340
B1141214151003N00048634EA002810038368
B1141224151000N00048635EA002810038461
B1141234150997N00048636EA002810038499
B1141244150995N00048640EA002820038464
B1141254150993N00048645EA002830038580
B1141264150992N00048650EA002840038681
B1141274150992N00048655EA002840038775
B1141284150993N00048661EA002830038773
B1141294150995N00048667EA002820038771
B1141304150999N00048672EA002810038704
B1141314151003N00048677EA002790038720
B1141324151008N00048680EA002780038716
B1141334151013N00048682EA002760038677
B1141344151019N00048684EA002770038661
B1141354151025N00048685EA002780038750
B1141364151031N00048685EA002790038822
B1141374151036N00048684EA002800038978
B1141384151042N00048683EA002820039147
B1141394151048N00048682EA002830039437
B1141404151053N00048682EA002860039696
B1141414151058N00048683EA002880039885
B1141424151062N00048685EA002890039993
B1141434151066N00048687EA002880040039
B1141444151069N00048691EA002860040146
B1141454151072N00048696EA002830040206
B1141464151073N00048702EA002810040347
B1141474151073N00048709EA002800040400
B1141484151071N00048713EA002800040408
B1141494151067N00048716EA002800040452
B1141504151063N00048715EA002800040567
B1141514151060N00048712EA002810040519
B1141524151057N00048708EA002820040675
B1141534151056N00048703EA002830040620
B1141544151055N00048697EA002840040683
B1141554151055N00048691EA002830040590
B1141564151055N00048684EA002830040468
B1141574151054N00048678EA002830040449
B1141584151052N00048674EA002830040442
B1141594151050N00048670EA002840040436
B1142004151048N00048667EA002840040329
B1142014151046N00048665EA002830040216
B1142024151043N00048663EA002820040093
B1142034151041N00048661EA002800039930
B1142044151038N00048658EA002790039845
B1142054151035N00048656EA002780039700
B1142064151031N00048653EA002790039854
B1142074151028N00048650EA002800039806
B1142084151024N00048647EA002810039997
B1142094151022N00048644EA002810039917
B1142104151019N00048641EA002810039827
B1142114151016N00048638EA002800039849
B1142124151013N00048636EA002790039771
B1142134151010N00048633EA002780039692
B1142144151007N00048630EA002770039573
B1142154151004N00048627EA002760039425
B1142164151000N00048624EA002750039375
B1142174150997N00048621EA002750039332
B1142184150994N00048617EA002750039222
B1142194150991N00048612EA002740039236
B1142204150988N00048607EA002740039149
B1142214150985N00048603EA002740039152
B1142224150982N00048598EA002740039166
B1142234150979N00048594EA002740039192
B1142244150977N00048589EA002750039249
B1142254150974N00048586EA002750039290
B1142264150972N00048582EA002750039215
B1142274150969N00048579EA002750039212
B1142284150966N00048576EA002750039301
B1142294150962N00048572EA002760039369
B1142304150959N00048570EA002760039320
B1142314150955N00048567EA002750039364
B1142324150952N00048564EA002740039207
B1142334150948N00048562EA002740039153
B1142344150945N00048560EA002730039010
B1142354150941N00048558EA002710038840
B1142364150937N00048556EA002700038733
B1142374150932N00048554EA002690038697
B1142384150928N00048552EA002690038667
B1142394150924N00048550EA002690038681
B1142404150921N00048546EA002680038538
B1142414150918N00048543EA002670038301
B1142424150914N00048539EA002650038124
B1142434150909N00048536EA002630037983
B1142444150905N00048534EA002620037827
B1142454150901N00048534EA002620037812
B1142464150897N00048534EA002620037777
B1142474150894N00048536EA002620037695
B1142484150892N00048539EA002600037585
B1142494150891N00048543EA002590037444
B1142504150891N00048547EA002570037249
B1142514150893N00048552EA002560037112
B1142524150896N00048555EA002550036913
B1142534150899N00048557EA002540036887
B1142544150903N00048559EA002540036878
B1142554150907N00048562EA002540036723
B1142564150910N00048564EA002540036727
B1142574150913N00048566EA002530036658
LXCTACTIVITY IN_VEHICLE 84
B1142584150916N00048568EA002510036498
B1142594150920N00048571EA002490036273
B1143004150924N00048574EA002470036144
B1143014150928N00048577EA002460036009
B1143024150931N00048581EA002460035953
B1143034150935N00048584EA002460035913
B1143044150938N00048587EA002460035970
B1143054150942N00048589EA002450035929
B1143064150945N00048593EA002450035961
B1143074150948N00048596EA002460035961
B1143084150951N00048597EA002470035936
B1143094150954N00048597EA002480035905
B1143104150957N00048596EA002460035908
B1143114150960N00048596EA002440035848
B1143124150963N00048598EA002420035784
B1143134150966N00048601EA002400035670
B1143144150969N00048603EA002400035527
B1143154150971N00048605EA002390035468
B1143164150974N00048607EA002380035334
B1143174150976N00048609EA002370035285
B1143184150978N00048612EA002350035095
B1143194150979N00048617EA002320034975
B1143204150979N00048623EA002320034802
B1143214150977N00048628EA002330034774
B1143224150976N00048632EA002350034669
B1143234150975N00048636EA002370034693
B1143244150975N00048639EA002360034581
B1143254150976N00048642EA002330034413
B1143264150976N00048646EA002290034354
B1143274150977N00048651EA002250034209
B1143284150977N00048658EA002220034157
B1143294150978N00048665EA002240034014
B1143304150978N00048670EA002270033933
B1143314150978N00048672EA002300033938
LXCTACTIVITY UNKNOWN 41
B1143324150978N00048673EA002310033847
B1143334150978N00048674EA002290033776
B1143344150979N00048676EA002260033627
B1143354150979N00048680EA002240033562
B1143364150979N00048683EA002240033568
B1143374150978N00048686EA002250033585
B1143384150977N00048688EA002240033411
B1143394150974N00048689EA002240033495
B1143404150972N00048690EA002240033338
B1143414150969N00048690EA002240033329
B1143424150965N00048689EA002240033387
B1143434150962N00048686EA002220033306
B1143444150957N00048681EA002210033288
B1143454150953N00048675EA002210033279
B1143464150950N00048669EA002210033203
B1143474150946N00048662EA002200033293
B1143484150943N00048655EA002190033076
B1143494150939N00048649EA002170032968
B1143504150934N00048645EA002150032827
B1143514150928N00048643EA002150032835
B1143524150922N00048642EA002150032764
B1143534150917N00048642EA002140032710
B1143544150911N00048642EA002140032665
B1143554150906N00048645EA002130032510
B1143564150901N00048649EA002140032511
B1143574150897N00048654EA002150032675
B1143584150895N00048659EA002160032689
B1143594150895N00048664EA002170032627
B1144004150895N00048669EA002180032761
B1144014150897N00048673EA002180032724
B1144024150899N00048677EA002180032873
B1144034150902N00048679EA002190032985
B1144044150906N00048679EA002210032821
B1144054150909N00048677EA002230032904
B1144064150911N00048674EA002220032945
B1144074150914N00048670EA002200032809
B1144084150917N00048667EA002190032636
B1144094150921N00048666EA002170032600
B1144104150923N00048666EA002150032599
B1144114150925N00048670EA002160032630
B1144124150925N00048673EA002160032557
B1144134150924N00048677EA002160032570
B1144144150923N00048680EA002150032482
B1144154150923N00048683EA002130032236
B1144164150922N00048687EA002110032084
LXCTACTIVITY IN_VEHICLE 79
B1144174150921N00048691EA002090031987
B1144184150919N00048695EA002100031966
B1144194150916N00048698EA002100031956
B1144204150913N00048701EA002100031921
B1144214150910N00048704EA002100031920
B1144224150908N00048707EA002090031819
B1144234150906N00048711EA002090031899
B1144244150906N00048715EA002100031956
B1144254150906N00048718EA002110032090
B1144264150907N00048719EA002120032098
B1144274150909N00048721EA002110031932
B1144284150910N00048723EA002100031871
B1144294150912N00048725EA002090031827
B1144304150914N00048728EA002080031735
B1144314150917N00048730EA002080031704
B1144324150920N00048731EA002080031733
B1144334150923N00048732EA002080031743
B1144344150926N00048734EA002070031610
B1144354150927N00048736EA002060031668
B1144364150927N00048740EA002050031575
B1144374150926N00048744EA002050031554
B1144384150924N00048747EA002050031569
B1144394150922N00048750EA002050031521
B1144404150919N00048751EA002050031442
B1144414150916N00048751EA002040031234
B1144424150913N00048751EA002010031009
B1144434150909N00048753EA001990030873
B1144444150907N00048756EA001980030722
B1144454150906N00048759EA001970030629
B1144464150907N00048763EA001970030622
B1144474150909N00048765EA001980030636
B1144484150911N00048767EA001970030699
B1144494150914N00048770EA001970030663
B1144504150917N00048772EA001960030568
B1144514150921N00048775EA001950030405
B1144524150924N00048778EA001940030353
B1144534150927N00048780EA001930030399
B1144544150930N00048783EA001940030382
B1144554150933N00048784EA001940030229
B1144564150935N00048786EA001930030027
B1144574150936N00048789EA001900029870
B1144584150937N00048792EA001880029670
B1144594150937N00048796EA001850029562
B1145004150937N00048801EA001830029310
B1145014150936N00048805EA001820029277
B1145024150936N00048810EA001820029161
B1145034150936N00048814EA001810029084
B1145044150937N00048818EA001800028908
B1145054150937N00048823EA001780028716
B1145064150937N00048828EA001780028712
B1145074150936N00048832EA001790028784
B1145084150936N00048836EA001790028763
B1145094150936N00048840EA001790028750
B1145104150936N00048843EA001790028749
B1145114150936N00048847EA001790028819
B1145124150935N00048851EA001780028798
B1145134150935N00048855EA001780028696
LXCTACTIVITY UNKNOWN 41
B1145144150935N00048859EA001760028490
B1145154150935N00048862EA001750028342
B1145164150933N00048865EA001720028163
B1145174150930N00048867EA001690027854
B1145184150926N00048868EA001660027544
B1145194150922N00048868EA001620027214
B1145204150917N00048868EA001590026963
B1145214150913N00048868EA001550026719
B1145224150908N00048869EA001500026349
B1145234150903N00048871EA001490026046
B1145244150898N00048873EA001490025857
B1145254150894N00048876EA001480025710
B1145264150890N00048879EA001450025553
B1145274150887N00048883EA001430025243
B1145284150884N00048888EA001400025060
B1145294150882N00048893EA001370024724
B1145304150880N00048899EA001350024532
B1145314150878N00048905EA001340024481
B1145324150877N00048910EA001350024224
B1145334150875N00048914EA001360024138
B1145344150873N00048918EA001350024015
B1145354150871N00048922EA001350023900
B1145364150869N00048925EA001350023816
B1145374150867N00048928EA001350023845
B1145384150865N00048930EA001350023845
B1145394150863N00048931EA001350023849
B1145404150861N00048933EA001350023870
B1145414150860N00048934EA001350023851
B1145424150859N00048934EA001350023787
B1145434150859N00048935EA001350023780
B1145444150860N00048935EA001350023804
B1145454150860N00048935EA001350023808
B1145464150860N00048936EA001350023841
B1145474150860N00048936EA001350023896
B1145484150861N00048937EA001350023840
B1145494150861N00048937EA001350023895
B1145504150862N00048938EA001350023841
LXCTACTIVITY ON_FOOT 82
B1145514150862N00048938EA001350023876
B1145524150862N00048939EA001350023891
B1145534150863N00048939EA001350023827
B1145544150863N00048940EA001350023952
B1145554150863N00048940EA001350023965
LXCTSTATS eyJzdGF0cyI6eyJHUFMiOnsiYWx0Rml4R2VvaWREaWZmIjotNDkuOTEzMDQ5OTI4Nz
LXCTSTATS IxMTYsImFsdEZpeE1ldGhvZCI6eyJkaWZmQXBpR2VvaWQiOjEsImRpZmZBcGlOb0Nv
LXCTSTATS cnJlY3Rpb24iOjB9LCJhcGlDbnQiOjEsImJlYXJpbmdDb21wdXRlZCI6MCwibm1lYU
LXCTSTATS NudCI6MzkyODEsInNwZWVkQ29tcHV0ZWQiOjB9LCJvcHRpU3RhdHMiOnsib3B0aUxD
LXCTSTATS b3VudCI6OTYwNCwib3B0aVRpbWVNbXMiOjI0Mjg4NjcxMH19fQ==
LXCTFAICIVLCOMPLIANT false
GA734E60478AC07C3FADBA1C74BFDD7F63B446F9394057334918D6C923B856F5F
G2D491B1101211B6CA6C4C88C354A1F01AF0460B11A88BAB01A2A8CEC221F074F
G8CDFD49425EC81618AD0AA674004E657200C0E1CDB4F3A1F1312CF0EF9AB8672
G49E1D78436B1BC5D80ED35A56B29AC1FFDD07F666976441C735D3773EEC7B3D8
