AXCT1b21703c-2e74-4935-9f12-62062e026975
HFFTYFRTYPE:samsung SM-A226B 13 Client:xctrack FlightId:019e599a-a8ee-719a-a878-b4342f373525
HFRFWFIRMWAREVERSION:0.9.12.6 LIVE:UNKNOWN
HFPLTPILOTINCHARGE:Juan Jose Olivares Romero
HOSITSite:?
HFCCLCOMPETITIONCLASS:FAI-3 (PG)
HFGTYGLIDERTYPE:AIRDESIGN Rise 5
HODTM100GPSDATUM:WGS-84
HFALPALTPRESSURE:ISA
HFALG:GEO
HFDTEDATE:240526,00
I023636LAD3737LOD
LXCTDEVICE eyJhcHAiOnsibmFtZSI6IlhDVHJhY2siLCJ2ZXJzaW9uQ29kZSI6OTEyNjAsInZlc
LXCTDEVICE nNpb25OYW1lIjoiMC45LjEyLjYifSwiZGV2aWNlIjp7ImJ1aWxkSWQiOiJUUDFBLj
LXCTDEVICE IyMDYyNC4wMTQiLCJjcHVBQkkiOiJhcm02NC12OGEiLCJkZXZRdWV1ZUJ1aWxkIjo
LXCTDEVICE iZjIzYWFmMTQ4ZTVmYTBjYzBhMDUwM2VhODE2NTk3YzliYzQ4MDgwZCIsImRldmlj
LXCTDEVICE ZVN0cmluZyI6InNhbXN1bmcgU00tQTIyNkIgMTMiLCJkaXNwbGF5Ijp7ImgiOjIyM
LXCTDEVICE DgsIm1tIjoxNy43MTY1MzYsInciOjEwODB9LCJmaW5nZXJwcmludCI6InNhbXN1bm
LXCTDEVICE cvYTIyeG5zZWVhL2EyMng6MTMvVFAxQS4yMjA2MjQuMDE0L0EyMjZCWFhTQkRaQzM
LXCTDEVICE 6dXNlci9yZWxlYXNlLWtleXMiLCJoYXJkd2FyZSI6Im10NjgzMyIsIm1hbnVmYWN0
LXCTDEVICE dXJlciI6InNhbXN1bmciLCJtZW1vcnkiOnsiYXZhaWxNZW0iOjEyOTU5NjYyMDgsI
LXCTDEVICE mZvcmVncm91bmRBcHBUaHJlc2hvbGQiOjc1NDk3NDcyLCJsb3dNZW1vcnkiOmZhbH
LXCTDEVICE NlLCJ0aHJlc2hvbGQiOjIyNjQ5MjQxNiwidG90YWxNZW0iOjM4MDc1ODgzNTJ9LCJ
LXCTDEVICE tb2RlbCI6IlNNLUEyMjZCIiwicHJvZHVjdCI6ImEyMnhuc2VlYSJ9LCJkZXZpY2VJ
LXCTDEVICE ZCI6IjFiMjE3MDNjLTJlNzQtNDkzNS05ZjEyLTYyMDYyZTAyNjk3NSIsIm9zIjp7I
LXCTDEVICE nNkayI6MzMsInRpbWV6b25lIjoiRXVyb3BlL01hZHJpZCIsInR5cGUiOiJBbmRyb2
LXCTDEVICE lkIiwidmVyc2lvbiI6IjEzIn19
B1059204151727N00049001EA000000077066
B1059214151724N00049001EA000000076952
B1059224151721N00049001EA000000076870
B1059234151719N00049000EA000000076727
B1059244151716N00049000EA000000076586
B1059254151714N00049001EA000000076440
B1059264151712N00049001EA000000076369
B1059274151711N00049003EA000000076156
B1059284151710N00049005EA000000076086
B1059294151710N00049007EA000000075929
B1059304151709N00049010EA000000075886
B1059314151709N00049013EA000000075831
B1059324151709N00049016EA000000075772
B1059334151710N00049019EA000000075797
B1059344151713N00049023EA000000075607
B1059354151715N00049027EA000000075577
B1059364151718N00049031EA000000075463
B1059374151721N00049034EA000000075346
B1059384151723N00049037EA000000075197
B1059394151726N00049040EA000000075099
B1059404151730N00049043EA000000074836
B1059414151734N00049046EA000000074631
B1059424151738N00049048EA000000074457
B1059434151743N00049051EA000000074109
B1059444151748N00049055EA000000073800
B1059454151752N00049057EA000000073786
B1059464151757N00049059EA000000073672
B1059474151762N00049060EA000000073557
B1059484151767N00049063EA000000073320
B1059494151771N00049066EA000000073273
B1059504151775N00049069EA000000073195
B1059514151780N00049072EA000000073048
B1059524151785N00049076EA000000072910
B1059534151790N00049079EA000000072710
B1059544151795N00049081EA000000072649
B1059554151800N00049084EA000000072564
B1059564151805N00049086EA000000072596
B1059574151810N00049089EA000000072490
B1059584151815N00049091EA000000072293
B1059594151821N00049093EA000000072005
B1100004151826N00049096EA000000071811
B1100014151831N00049098EA000000071548
B1100024151836N00049101EA000000071487
B1100034151842N00049104EA000000071333
B1100044151847N00049106EA000000071359
B1100054151852N00049108EA000000071353
B1100064151857N00049108EA000000071338
B1100074151861N00049109EA000000071177
B1100084151866N00049111EA000000070941
B1100094151871N00049113EA000000070842
B1100104151876N00049114EA000000070799
B1100114151882N00049116EA000000070619
B1100124151886N00049118EA000000070584
B1100134151892N00049119EA000000070349
B1100144151898N00049121EA000000070108
B1100154151903N00049124EA000000070076
B1100164151909N00049127EA000000070046
B1100174151913N00049130EA000000070082
B1100184151917N00049132EA000000069988
B1100194151921N00049135EA000000069788
B1100204151926N00049138EA000000069629
B1100214151931N00049142EA000000069619
B1100224151936N00049147EA000000069605
B1100234151941N00049151EA000000069639
B1100244151946N00049155EA000000069743
B1100254151951N00049158EA000000069610
B1100264151956N00049160EA000000069407
B1100274151961N00049164EA000000069311
B1100284151966N00049167EA000000069116
B1100294151970N00049171EA000000068998
B1100304151975N00049176EA000000068722
B1100314151978N00049181EA000000068640
B1100324151980N00049185EA000000068533
B1100334151980N00049189EA000000068422
B1100344151978N00049192EA000000068294
B1100354151977N00049195EA000000068120
B1100364151975N00049196EA000000067909
B1100374151972N00049198EA000000067740
B1100384151969N00049198EA000000067534
B1100394151966N00049197EA000000067421
B1100404151963N00049194EA000000067427
B1100414151960N00049192EA000000067244
B1100424151957N00049189EA000000067088
B1100434151954N00049186EA000000066877
B1100444151951N00049183EA000000066651
B1100454151948N00049179EA000000066536
B1100464151945N00049176EA000000066420
B1100474151942N00049172EA000000066221
B1100484151939N00049168EA000000066030
B1100494151936N00049164EA000000065972
B1100504151934N00049159EA000000065749
B1100514151932N00049156EA000000065502
B1100524151929N00049153EA000000065326
B1100534151925N00049151EA000000065181
B1100544151922N00049148EA000000064921
B1100554151918N00049144EA000000064969
B1100564151915N00049141EA000000065048
B1100574151912N00049139EA000000065385
B1100584151911N00049138EA000000065510
B1100594151910N00049136EA000000065703
B1101004151909N00049133EA000000065807
B1101014151907N00049130EA000000065885
B1101024151905N00049127EA000000065961
B1101034151902N00049124EA000000066082
B1101044151899N00049121EA000000066189
B1101054151897N00049120EA000000066331
B1101064151895N00049118EA000000066408
B1101074151892N00049117EA000000066683
B1101084151890N00049115EA000000066757
B1101094151888N00049114EA000000066820
B1101104151885N00049112EA000000066997
B1101114151883N00049111EA000000067072
B1101124151881N00049110EA000000066932
B1101134151879N00049108EA000000066847
B1101144151877N00049106EA000000066716
B1101154151874N00049104EA000000066530
B1101164151870N00049101EA000000066377
B1101174151866N00049100EA000000066222
B1101184151862N00049098EA000000066228
B1101194151858N00049096EA000000066399
B1101204151856N00049095EA000000066331
B1101214151853N00049092EA000000066399
B1101224151851N00049090EA000000066334
B1101234151848N00049088EA000000066230
B1101244151844N00049085EA000000066318
B1101254151840N00049084EA000000066428
B1101264151836N00049084EA000000066597
B1101274151834N00049084EA000000066667
B1101284151833N00049084EA000000066703
B1101294151831N00049083EA000000066862
B1101304151829N00049081EA000000066783
B1101314151827N00049079EA000000066641
B1101324151824N00049076EA000000066555
B1101334151821N00049073EA000000066534
B1101344151817N00049070EA000000066594
B1101354151814N00049067EA000000066645
B1101364151811N00049064EA000000066877
B1101374151809N00049062EA000000067052
B1101384151807N00049060EA000000067084
B1101394151805N00049058EA000000067163
B1101404151802N00049056EA000000067162
B1101414151798N00049053EA000000067298
B1101424151795N00049051EA000000067367
B1101434151793N00049049EA000000067318
B1101444151791N00049047EA000000067346
B1101454151789N00049045EA000000067273
B1101464151787N00049042EA000000067153
B1101474151784N00049040EA000000067069
B1101484151781N00049040EA000000067058
B1101494151778N00049041EA000000067165
B1101504151775N00049042EA000000067274
B1101514151772N00049043EA000000067378
B1101524151770N00049045EA000000067506
B1101534151768N00049047EA000000067725
B1101544151766N00049049EA000000067956
B1101554151765N00049052EA000000068101
B1101564151763N00049054EA000000068480
B1101574151762N00049055EA000000068527
B1101584151760N00049057EA000000068745
B1101594151758N00049058EA000000068956
B1102004151756N00049058EA000000069129
B1102014151753N00049059EA000000069472
B1102024151751N00049059EA000000069654
B1102034151749N00049059EA000000069976
B1102044151748N00049059EA000000070029
B1102054151746N00049060EA000000070233
B1102064151744N00049060EA000000070303
B1102074151741N00049058EA000000070597
B1102084151739N00049055EA000000070696
B1102094151737N00049051EA000000070699
B1102104151735N00049049EA000000070781
B1102114151733N00049047EA000000070881
B1102124151732N00049045EA000000070903
B1102134151730N00049043EA000000071061
B1102144151729N00049040EA000000071119
B1102154151727N00049038EA000000071170
B1102164151726N00049035EA000000071108
B1102174151724N00049033EA000000071126
B1102184151722N00049031EA000000071124
B1102194151720N00049029EA000000071209
B1102204151717N00049028EA000000071374
B1102214151715N00049026EA000000071478
B1102224151713N00049024EA000000071496
B1102234151711N00049021EA000000071499
B1102244151709N00049019EA000000071462
B1102254151707N00049016EA000000071458
B1102264151705N00049014EA000000071446
B1102274151703N00049013EA000000071421
B1102284151701N00049011EA000000071503
B1102294151698N00049009EA000000071672
B1102304151696N00049006EA000000071863
B1102314151695N00049002EA000000072033
B1102324151695N00048997EA000000072226
B1102334151695N00048991EA000000072298
B1102344151698N00048984EA000000072217
B1102354151702N00048976EA000000072147
B1102364151709N00048970EA000000072187
B1102374151718N00048968EA000000072086
B1102384151727N00048971EA000000071963
B1102394151735N00048977EA000000072008
B1102404151739N00048985EA000000072164
B1102414151741N00048992EA000000072440
B1102424151742N00048997EA000000072710
B1102434151743N00049000EA000000072909
B1102444151743N00049005EA000000073161
B1102454151743N00049009EA000000073398
B1102464151743N00049015EA000000073550
B1102474151742N00049019EA000000073769
B1102484151741N00049024EA000000073942
B1102494151740N00049028EA000000074154
B1102504151739N00049032EA000000074382
B1102514151739N00049036EA000000074533
B1102524151738N00049040EA000000074567
B1102534151737N00049045EA000000074691
B1102544151736N00049049EA000000074651
B1102554151734N00049052EA000000074891
B1102564151732N00049052EA000000074976
B1102574151730N00049050EA000000074973
B1102584151729N00049044EA000000075081
B1102594151730N00049036EA000000074900
B1103004151732N00049027EA000000074833
B1103014151737N00049018EA000000074853
B1103024151745N00049012EA000000074852
B1103034151755N00049010EA000000074901
B1103044151763N00049011EA000000075066
B1103054151770N00049015EA000000075155
B1103064151775N00049020EA000000075298
B1103074151779N00049026EA000000075285
B1103084151782N00049032EA000000075334
B1103094151783N00049038EA000000075474
B1103104151784N00049043EA000000075466
B1103114151784N00049048EA000000075491
B1103124151784N00049052EA000000075310
B1103134151782N00049054EA000000075466
B1103144151780N00049056EA000000075477
B1103154151778N00049057EA000000075474
B1103164151776N00049056EA000000075326
B1103174151773N00049055EA000000075390
B1103184151772N00049053EA000000075308
B1103194151770N00049052EA000000075239
B1103204151768N00049052EA000000075150
B1103214151766N00049051EA000000075094
B1103224151764N00049050EA000000074988
B1103234151762N00049050EA000000074881
B1103244151760N00049049EA000000074671
B1103254151758N00049048EA000000074560
B1103264151756N00049047EA000000074475
B1103274151754N00049047EA000000074366
B1103284151752N00049047EA000000074238
B1103294151750N00049047EA000000074135
B1103304151748N00049046EA000000074078
B1103314151747N00049046EA000000073960
B1103324151746N00049045EA000000073751
B1103334151744N00049044EA000000073450
B1103344151741N00049043EA000000073174
B1103354151738N00049043EA000000072936
B1103364151735N00049044EA000000072815
B1103374151732N00049044EA000000072759
B1103384151730N00049044EA000000072779
B1103394151729N00049044EA000000072618
B1103404151727N00049044EA000000072557
B1103414151725N00049043EA000000072427
B1103424151722N00049041EA000000072325
B1103434151718N00049038EA000000072222
B1103444151714N00049034EA000000072278
B1103454151711N00049031EA000000072281
B1103464151709N00049028EA000000072272
B1103474151707N00049025EA000000072294
B1103484151706N00049022EA000000072119
B1103494151703N00049020EA000000071988
B1103504151701N00049018EA000000071818
B1103514151698N00049017EA000000071640
B1103524151695N00049015EA000000071574
B1103534151692N00049013EA000000071498
B1103544151690N00049012EA000000071220
B1103554151687N00049010EA000000071153
B1103564151684N00049008EA000000070975
B1103574151682N00049006EA000000070825
B1103584151679N00049004EA000000070868
B1103594151677N00049003EA000000070827
B1104004151675N00049002EA000000070718
B1104014151672N00049002EA000000070790
B1104024151670N00049000EA000000070649
B1104034151667N00048999EA000000070457
B1104044151664N00048998EA000000070349
B1104054151661N00048998EA000000070314
B1104064151658N00048998EA000000070321
B1104074151655N00048998EA000000070370
B1104084151653N00048998EA000000070220
B1104094151650N00048997EA000000070173
B1104104151648N00048996EA000000069911
B1104114151645N00048994EA000000069656
B1104124151642N00048992EA000000069457
B1104134151639N00048990EA000000069257
B1104144151636N00048989EA000000069241
B1104154151634N00048988EA000000069100
B1104164151631N00048987EA000000069295
B1104174151630N00048987EA000000069209
B1104184151628N00048988EA000000069252
B1104194151626N00048988EA000000069295
B1104204151625N00048988EA000000069211
B1104214151622N00048987EA000000069161
B1104224151619N00048986EA000000069092
B1104234151617N00048985EA000000069017
B1104244151613N00048985EA000000069199
B1104254151610N00048986EA000000069193
B1104264151608N00048985EA000000069234
B1104274151606N00048982EA000000069330
B1104284151605N00048977EA000000069300
B1104294151604N00048970EA000000069275
B1104304151606N00048963EA000000069154
B1104314151610N00048956EA000000069153
B1104324151617N00048950EA000000069019
B1104334151624N00048947EA000000069063
B1104344151631N00048945EA000000069173
B1104354151638N00048944EA000000069075
B1104364151645N00048944EA000000068975
B1104374151653N00048946EA000000068722
B1104384151660N00048949EA000000068639
B1104394151666N00048955EA000000068684
B1104404151671N00048961EA000000068689
B1104414151674N00048968EA000000068881
B1104424151676N00048973EA000000068941
B1104434151677N00048976EA000000069065
B1104444151679N00048980EA000000068921
B1104454151681N00048984EA000000068904
B1104464151682N00048990EA000000068821
B1104474151682N00048996EA000000068761
B1104484151682N00049001EA000000068736
B1104494151681N00049006EA000000068657
B1104504151681N00049011EA000000068648
B1104514151682N00049016EA000000068655
B1104524151683N00049021EA000000068644
B1104534151684N00049027EA000000068600
B1104544151684N00049032EA000000068677
B1104554151685N00049038EA000000068628
B1104564151686N00049044EA000000068615
B1104574151687N00049049EA000000068665
B1104584151689N00049053EA000000068628
B1104594151690N00049057EA000000068546
B1105004151690N00049061EA000000068449
B1105014151689N00049066EA000000068267
B1105024151689N00049071EA000000068107
B1105034151688N00049076EA000000068072
B1105044151689N00049080EA000000068039
B1105054151691N00049086EA000000067802
B1105064151694N00049092EA000000067622
B1105074151699N00049097EA000000067375
B1105084151706N00049101EA000000067200
B1105094151712N00049102EA000000067065
B1105104151718N00049102EA000000066983
B1105114151724N00049101EA000000066776
B1105124151731N00049100EA000000066513
B1105134151738N00049098EA000000066104
B1105144151745N00049095EA000000065933
B1105154151752N00049092EA000000065855
B1105164151759N00049090EA000000065774
B1105174151766N00049089EA000000065752
B1105184151772N00049088EA000000065686
B1105194151778N00049088EA000000065592
B1105204151785N00049087EA000000065446
B1105214151792N00049087EA000000065341
B1105224151799N00049086EA000000065227
B1105234151805N00049086EA000000065175
B1105244151811N00049086EA000000065198
B1105254151817N00049087EA000000065085
B1105264151823N00049088EA000000064977
B1105274151829N00049090EA000000064774
B1105284151836N00049091EA000000064619
B1105294151842N00049093EA000000064641
B1105304151848N00049094EA000000064585
B1105314151854N00049096EA000000064484
B1105324151860N00049098EA000000064426
B1105334151865N00049100EA000000064458
B1105344151870N00049103EA000000064362
B1105354151875N00049106EA000000064283
B1105364151880N00049109EA000000064181
B1105374151885N00049111EA000000063969
B1105384151890N00049115EA000000063846
B1105394151895N00049119EA000000063728
B1105404151899N00049124EA000000063593
B1105414151904N00049128EA000000063489
B1105424151909N00049133EA000000063382
B1105434151915N00049138EA000000063322
B1105444151920N00049143EA000000063371
B1105454151926N00049147EA000000063359
B1105464151932N00049153EA000000063321
B1105474151937N00049158EA000000063382
B1105484151943N00049163EA000000063364
B1105494151949N00049167EA000000063312
B1105504151954N00049171EA000000063435
B1105514151959N00049176EA000000063422
B1105524151963N00049181EA000000063463
B1105534151967N00049185EA000000063389
B1105544151971N00049190EA000000063244
B1105554151975N00049195EA000000063120
B1105564151977N00049200EA000000062934
B1105574151977N00049205EA000000062748
B1105584151975N00049210EA000000062577
B1105594151973N00049214EA000000062328
B1106004151970N00049217EA000000062129
B1106014151966N00049220EA000000061972
B1106024151963N00049221EA000000061709
B1106034151959N00049222EA000000061500
B1106044151955N00049220EA000000061317
B1106054151951N00049218EA000000061294
B1106064151949N00049214EA000000061248
B1106074151947N00049210EA000000061137
B1106084151945N00049206EA000000061034
B1106094151943N00049202EA000000060933
B1106104151941N00049198EA000000060800
B1106114151938N00049194EA000000060644
B1106124151935N00049190EA000000060564
B1106134151932N00049187EA000000060474
B1106144151929N00049184EA000000060386
B1106154151926N00049182EA000000060372
B1106164151924N00049179EA000000060325
B1106174151922N00049176EA000000060334
B1106184151920N00049172EA000000060259
B1106194151917N00049169EA000000060185
B1106204151914N00049166EA000000060046
B1106214151910N00049163EA000000059978
B1106224151907N00049161EA000000060031
B1106234151904N00049158EA000000060156
B1106244151902N00049155EA000000060126
B1106254151899N00049151EA000000060278
B1106264151897N00049147EA000000060181
B1106274151895N00049142EA000000060160
B1106284151893N00049136EA000000060124
B1106294151890N00049131EA000000060071
B1106304151888N00049125EA000000060109
B1106314151885N00049121EA000000060124
B1106324151882N00049116EA000000060144
B1106334151879N00049111EA000000060067
B1106344151876N00049106EA000000060098
B1106354151874N00049101EA000000059919
B1106364151871N00049097EA000000059825
B1106374151867N00049094EA000000059774
B1106384151864N00049092EA000000059734
B1106394151860N00049090EA000000059699
B1106404151856N00049089EA000000059683
B1106414151853N00049087EA000000059604
B1106424151849N00049084EA000000059758
B1106434151846N00049081EA000000059837
B1106444151843N00049077EA000000059919
B1106454151840N00049074EA000000059935
B1106464151837N00049071EA000000059943
B1106474151834N00049068EA000000059854
B1106484151831N00049065EA000000059882
B1106494151828N00049061EA000000059788
B1106504151825N00049058EA000000059772
B1106514151822N00049054EA000000059600
B1106524151817N00049049EA000000059679
B1106534151813N00049046EA000000059753
B1106544151809N00049043EA000000059871
B1106554151806N00049040EA000000059972
B1106564151804N00049037EA000000060036
B1106574151802N00049035EA000000060215
B1106584151799N00049033EA000000060486
B1106594151797N00049031EA000000060698
B1107004151796N00049030EA000000060843
B1107014151795N00049028EA000000060929
B1107024151794N00049027EA000000061025
B1107034151792N00049025EA000000060947
B1107044151789N00049024EA000000060890
B1107054151786N00049022EA000000060745
B1107064151782N00049020EA000000060669
B1107074151779N00049019EA000000060611
B1107084151776N00049016EA000000060707
B1107094151773N00049014EA000000060819
B1107104151770N00049013EA000000060936
B1107114151767N00049012EA000000061178
B1107124151765N00049012EA000000061293
B1107134151764N00049012EA000000061314
B1107144151761N00049013EA000000061372
B1107154151759N00049013EA000000061246
B1107164151756N00049013EA000000061184
B1107174151754N00049011EA000000061028
B1107184151751N00049010EA000000060857
B1107194151748N00049009EA000000060699
B1107204151746N00049009EA000000060524
B1107214151743N00049008EA000000060456
B1107224151740N00049007EA000000060582
B1107234151738N00049005EA000000060613
B1107244151735N00049003EA000000060847
B1107254151732N00049002EA000000060989
B1107264151730N00049003EA000000061010
B1107274151727N00049003EA000000061102
B1107284151723N00049002EA000000061329
B1107294151719N00049002EA000000061568
B1107304151715N00049004EA000000061791
B1107314151712N00049006EA000000061874
B1107324151709N00049008EA000000062099
B1107334151707N00049011EA000000062223
B1107344151704N00049013EA000000062392
B1107354151702N00049014EA000000062397
B1107364151700N00049015EA000000062272
B1107374151697N00049014EA000000062192
B1107384151694N00049011EA000000061976
B1107394151691N00049008EA000000061754
B1107404151688N00049005EA000000061685
B1107414151686N00049003EA000000061443
B1107424151684N00049001EA000000061108
B1107434151680N00049000EA000000060976
B1107444151677N00048999EA000000060746
B1107454151674N00048998EA000000060605
B1107464151670N00048997EA000000060565
B1107474151667N00048996EA000000060455
B1107484151664N00048996EA000000060430
B1107494151661N00048995EA000000060277
B1107504151658N00048995EA000000060197
B1107514151655N00048996EA000000059995
B1107524151653N00048998EA000000059813
B1107534151650N00049000EA000000059645
B1107544151647N00049002EA000000059477
B1107554151644N00049004EA000000059399
B1107564151642N00049006EA000000059217
B1107574151639N00049008EA000000059013
B1107584151635N00049009EA000000059055
B1107594151631N00049010EA000000058961
B1108004151628N00049010EA000000059005
B1108014151624N00049011EA000000059060
B1108024151621N00049011EA000000059085
B1108034151619N00049011EA000000058934
B1108044151616N00049010EA000000058856
B1108054151613N00049009EA000000058746
B1108064151609N00049008EA000000058693
B1108074151606N00049006EA000000058529
B1108084151602N00049006EA000000058450
B1108094151598N00049005EA000000058495
B1108104151595N00049005EA000000058364
B1108114151592N00049005EA000000058352
B1108124151589N00049004EA000000058276
B1108134151587N00049003EA000000058114
B1108144151584N00049001EA000000057930
B1108154151581N00048997EA000000057860
B1108164151579N00048991EA000000057799
B1108174151578N00048986EA000000057577
B1108184151577N00048981EA000000057538
B1108194151575N00048978EA000000057427
B1108204151572N00048977EA000000057264
B1108214151569N00048977EA000000057248
B1108224151566N00048979EA000000057220
B1108234151563N00048981EA000000057220
B1108244151559N00048982EA000000057293
B1108254151557N00048983EA000000057302
B1108264151553N00048984EA000000057485
B1108274151550N00048986EA000000057474
B1108284151548N00048988EA000000057426
B1108294151545N00048990EA000000057374
B1108304151543N00048991EA000000057378
B1108314151541N00048993EA000000057230
B1108324151538N00048994EA000000057141
B1108334151534N00048995EA000000056992
B1108344151531N00048996EA000000056857
B1108354151528N00048997EA000000056639
B1108364151525N00048998EA000000056504
B1108374151521N00048998EA000000056380
B1108384151518N00048997EA000000056263
B1108394151515N00048996EA000000056055
B1108404151512N00048996EA000000055830
B1108414151509N00048996EA000000055654
B1108424151507N00048999EA000000055320
B1108434151506N00049004EA000000055031
B1108444151508N00049010EA000000054718
B1108454151513N00049017EA000000054438
B1108464151519N00049022EA000000054391
B1108474151526N00049024EA000000054342
B1108484151531N00049024EA000000054258
B1108494151535N00049026EA000000054271
B1108504151540N00049028EA000000054002
B1108514151545N00049030EA000000053718
B1108524151550N00049033EA000000053592
B1108534151557N00049035EA000000053308
B1108544151562N00049037EA000000053348
B1108554151568N00049040EA000000053204
B1108564151574N00049043EA000000053101
B1108574151579N00049045EA000000053074
B1108584151585N00049048EA000000052905
B1108594151590N00049052EA000000052716
B1109004151594N00049056EA000000052558
B1109014151598N00049062EA000000052331
B1109024151601N00049068EA000000052125
B1109034151602N00049075EA000000052059
B1109044151602N00049082EA000000051869
B1109054151600N00049088EA000000051777
B1109064151597N00049092EA000000051695
B1109074151594N00049094EA000000051546
B1109084151590N00049095EA000000051499
B1109094151587N00049097EA000000051346
B1109104151583N00049098EA000000051125
B1109114151578N00049097EA000000051095
B1109124151575N00049094EA000000050809
B1109134151571N00049091EA000000050761
B1109144151567N00049087EA000000050794
B1109154151564N00049084EA000000050718
B1109164151561N00049082EA000000050713
B1109174151558N00049079EA000000050745
B1109184151556N00049075EA000000050602
B1109194151554N00049070EA000000050410
B1109204151552N00049064EA000000050333
B1109214151550N00049058EA000000050347
B1109224151548N00049054EA000000050244
B1109234151546N00049051EA000000050231
B1109244151543N00049048EA000000050184
B1109254151541N00049046EA000000050021
B1109264151538N00049043EA000000049958
B1109274151535N00049042EA000000049833
B1109284151532N00049041EA000000049781
B1109294151530N00049039EA000000049627
B1109304151527N00049037EA000000049453
B1109314151524N00049034EA000000049336
B1109324151521N00049031EA000000049215
B1109334151518N00049027EA000000049256
B1109344151516N00049024EA000000049205
B1109354151513N00049022EA000000049272
B1109364151511N00049020EA000000049115
B1109374151507N00049018EA000000049095
B1109384151504N00049016EA000000048950
B1109394151500N00049013EA000000048892
B1109404151497N00049011EA000000048744
B1109414151494N00049010EA000000048634
B1109424151491N00049009EA000000048616
B1109434151487N00049008EA000000048348
B1109444151483N00049007EA000000048277
B1109454151479N00049006EA000000048065
B1109464151475N00049005EA000000047719
B1109474151470N00049005EA000000047562
B1109484151466N00049004EA000000047404
B1109494151461N00049003EA000000047392
B1109504151458N00049001EA000000047146
B1109514151455N00049000EA000000046904
B1109524151451N00049000EA000000046582
B1109534151448N00049000EA000000046128
B1109544151443N00049002EA000000045692
B1109554151439N00049004EA000000045112
B1109564151434N00049006EA000000044827
B1109574151429N00049009EA000000044687
B1109584151426N00049012EA000000044517
B1109594151423N00049015EA000000044311
B1110004151420N00049016EA000000044019
B1110014151417N00049019EA000000043711
B1110024151413N00049022EA000000043233
B1110034151408N00049026EA000000042883
B1110044151404N00049030EA000000042423
B1110054151399N00049034EA000000042193
B1110064151395N00049038EA000000041897
B1110074151392N00049043EA000000041703
B1110084151388N00049048EA000000041667
B1110094151385N00049053EA000000041643
B1110104151381N00049057EA000000041483
B1110114151378N00049061EA000000041314
B1110124151374N00049065EA000000041208
B1110134151369N00049069EA000000041178
B1110144151365N00049073EA000000041014
B1110154151360N00049076EA000000040973
B1110164151356N00049078EA000000040918
B1110174151351N00049081EA000000040840
B1110184151346N00049082EA000000040766
B1110194151341N00049083EA000000040795
B1110204151336N00049084EA000000040762
B1110214151330N00049085EA000000040999
B1110224151325N00049088EA000000041188
B1110234151321N00049092EA000000041480
B1110244151318N00049094EA000000041517
B1110254151314N00049097EA000000041672
B1110264151310N00049099EA000000041670
B1110274151306N00049100EA000000041635
B1110284151301N00049101EA000000041642
B1110294151296N00049100EA000000041598
B1110304151293N00049099EA000000041572
B1110314151291N00049096EA000000041311
B1110324151288N00049092EA000000041071
B1110334151285N00049087EA000000040733
B1110344151281N00049082EA000000040576
B1110354151277N00049078EA000000040498
B1110364151274N00049075EA000000040267
B1110374151271N00049072EA000000039923
B1110384151268N00049068EA000000039700
B1110394151264N00049062EA000000039389
B1110404151260N00049057EA000000039187
B1110414151256N00049052EA000000038975
B1110424151252N00049047EA000000038887
B1110434151249N00049043EA000000038835
B1110444151246N00049039EA000000038627
B1110454151243N00049036EA000000038500
B1110464151239N00049032EA000000038424
B1110474151234N00049029EA000000038291
B1110484151230N00049026EA000000038108
B1110494151225N00049025EA000000038119
B1110504151220N00049026EA000000038142
B1110514151216N00049026EA000000037919
B1110524151211N00049026EA000000037898
B1110534151207N00049025EA000000037777
B1110544151202N00049023EA000000037586
B1110554151197N00049022EA000000037380
B1110564151192N00049020EA000000037289
B1110574151188N00049020EA000000037033
B1110584151184N00049019EA000000036720
B1110594151179N00049017EA000000036475
B1111004151174N00049015EA000000036175
B1111014151169N00049012EA000000035939
B1111024151164N00049010EA000000035804
B1111034151159N00049007EA000000035778
B1111044151155N00049005EA000000035671
B1111054151151N00049002EA000000035682
B1111064151148N00048999EA000000035501
B1111074151144N00048996EA000000035502
B1111084151139N00048993EA000000035585
B1111094151136N00048991EA000000035704
B1111104151132N00048990EA000000035851
B1111114151129N00048988EA000000036075
B1111124151127N00048985EA000000035967
B1111134151126N00048981EA000000035847
B1111144151127N00048975EA000000035529
B1111154151131N00048970EA000000035350
B1111164151138N00048967EA000000035165
B1111174151146N00048969EA000000035008
B1111184151151N00048976EA000000035153
B1111194151153N00048983EA000000035369
B1111204151153N00048990EA000000035664
B1111214151153N00048995EA000000035721
B1111224151153N00049000EA000000035803
B1111234151152N00049005EA000000035838
B1111244151151N00049011EA000000035806
B1111254151148N00049017EA000000035713
B1111264151144N00049021EA000000035805
B1111274151139N00049023EA000000035866
B1111284151135N00049023EA000000035942
B1111294151131N00049020EA000000035984
B1111304151129N00049016EA000000035823
B1111314151128N00049011EA000000035712
B1111324151129N00049005EA000000035502
B1111334151132N00048999EA000000035588
B1111344151139N00048998EA000000035438
B1111354151145N00049002EA000000035361
B1111364151150N00049008EA000000035445
B1111374151152N00049015EA000000035665
B1111384151152N00049022EA000000035835
B1111394151150N00049028EA000000036099
B1111404151148N00049034EA000000036075
B1111414151146N00049039EA000000035932
B1111424151143N00049042EA000000035928
B1111434151139N00049045EA000000035848
B1111444151134N00049048EA000000035864
B1111454151129N00049050EA000000035992
B1111464151125N00049050EA000000036078
B1111474151122N00049049EA000000036142
B1111484151120N00049045EA000000036017
B1111494151118N00049040EA000000035997
B1111504151118N00049034EA000000035945
B1111514151119N00049028EA000000035843
B1111524151121N00049023EA000000035690
B1111534151126N00049019EA000000035616
B1111544151131N00049017EA000000035575
B1111554151137N00049018EA000000035582
B1111564151142N00049021EA000000035597
B1111574151147N00049027EA000000035520
B1111584151150N00049033EA000000035562
B1111594151152N00049039EA000000035657
B1112004151152N00049046EA000000035585
B1112014151150N00049052EA000000035499
B1112024151147N00049058EA000000035416
B1112034151141N00049062EA000000035391
B1112044151136N00049062EA000000035399
B1112054151132N00049061EA000000035386
B1112064151129N00049059EA000000035384
B1112074151127N00049056EA000000035256
B1112084151125N00049054EA000000035140
B1112094151122N00049051EA000000035081
B1112104151119N00049047EA000000034859
B1112114151115N00049044EA000000034579
B1112124151111N00049041EA000000034366
B1112134151107N00049038EA000000034284
B1112144151104N00049035EA000000034046
B1112154151101N00049032EA000000033829
B1112164151097N00049030EA000000033674
B1112174151094N00049027EA000000033438
B1112184151090N00049024EA000000033239
B1112194151085N00049021EA000000033099
B1112204151082N00049018EA000000032806
B1112214151078N00049015EA000000032793
B1112224151076N00049012EA000000032521
B1112234151073N00049009EA000000032320
B1112244151069N00049006EA000000032071
B1112254151065N00049002EA000000031868
B1112264151061N00048999EA000000031676
B1112274151058N00048996EA000000031415
B1112284151054N00048993EA000000031379
B1112294151051N00048991EA000000031139
B1112304151047N00048989EA000000031062
B1112314151044N00048986EA000000030922
B1112324151041N00048982EA000000030719
B1112334151037N00048979EA000000030559
B1112344151033N00048977EA000000030471
B1112354151030N00048974EA000000030326
B1112364151026N00048972EA000000030286
B1112374151023N00048970EA000000030174
B1112384151020N00048968EA000000030091
B1112394151018N00048965EA000000029825
B1112404151015N00048963EA000000029730
B1112414151012N00048960EA000000029525
B1112424151008N00048959EA000000029470
B1112434151005N00048959EA000000029310
B1112444151001N00048959EA000000029347
B1112454150998N00048960EA000000029329
B1112464150995N00048962EA000000029323
B1112474150991N00048964EA000000029392
B1112484150988N00048966EA000000029261
B1112494150985N00048967EA000000029233
B1112504150982N00048968EA000000029141
B1112514150979N00048969EA000000029032
B1112524150976N00048970EA000000028933
B1112534150972N00048972EA000000028971
B1112544150969N00048974EA000000028720
B1112554150965N00048976EA000000028590
B1112564150962N00048978EA000000028482
B1112574150959N00048980EA000000028345
B1112584150955N00048983EA000000028183
B1112594150952N00048986EA000000028028
B1113004150948N00048990EA000000027965
B1113014150946N00048994EA000000027806
B1113024150944N00048998EA000000027726
B1113034150942N00049002EA000000027777
B1113044150940N00049006EA000000027796
B1113054150938N00049010EA000000027647
B1113064150936N00049014EA000000027529
B1113074150933N00049018EA000000027582
B1113084150930N00049020EA000000027373
B1113094150927N00049019EA000000027284
B1113104150925N00049013EA000000027259
B1113114150925N00049006EA000000027159
B1113124150927N00049000EA000000027141
B1113134150930N00048993EA000000027269
B1113144150933N00048988EA000000027355
B1113154150935N00048982EA000000027438
B1113164150936N00048976EA000000027458
B1113174150937N00048970EA000000027437
B1113184150936N00048965EA000000027353
B1113194150934N00048961EA000000027207
B1113204150928N00048961EA000000027094
B1113214150923N00048965EA000000026897
B1113224150920N00048972EA000000026759
B1113234150920N00048980EA000000026724
B1113244150921N00048986EA000000026896
B1113254150923N00048991EA000000026897
B1113264150924N00048996EA000000026766
B1113274150924N00049001EA000000026719
B1113284150922N00049006EA000000026738
B1113294150919N00049010EA000000026877
B1113304150917N00049013EA000000026843
B1113314150915N00049014EA000000026726
B1113324150912N00049012EA000000026624
B1113334150910N00049007EA000000026626
B1113344150910N00049001EA000000026471
B1113354150914N00048993EA000000026299
B1113364150920N00048988EA000000026263
B1113374150924N00048983EA000000026283
B1113384150926N00048977EA000000026274
B1113394150926N00048971EA000000026079
B1113404150925N00048967EA000000025932
B1113414150923N00048964EA000000025812
B1113424150920N00048963EA000000025764
B1113434150918N00048963EA000000025708
B1113444150915N00048964EA000000025773
B1113454150913N00048963EA000000025668
B1113464150911N00048962EA000000025447
B1113474150908N00048962EA000000025281
B1113484150906N00048961EA000000025105
B1113494150903N00048961EA000000024933
B1113504150900N00048961EA000000024631
B1113514150897N00048960EA000000024459
B1113524150895N00048960EA000000024318
B1113534150893N00048961EA000000024172
B1113544150893N00048961EA000000024128
B1113554150893N00048961EA000000024219
B1113564150893N00048961EA000000024219
B1113574150893N00048961EA000000024219
B1113584150893N00048961EA000000024219
B1113594150893N00048961EA000000024219
B1114004150893N00048961EA000000024219
B1114014150893N00048961EA000000024219
B1114024150893N00048961EA000000024219
B1114034150893N00048961EA000000024219
B1114044150893N00048961EA000000024219
B1114054150893N00048961EA000000024219
B1114064150893N00048961EA000000024219
B1114074150893N00048961EA000000024219
LXCTFAICIVLCOMPLIANT false
G03F9313F743AAAAD82B703198948AA4F94021EF81E030C917367BF490FBB9B8C
G068A5B3CA4B9B8E2535D17D272555563A77A10584E1DB7A55671F4F1470C9462
G45B42F7EF6FACD2E0A787A2F38F75FEF56DB3FA9DD6E413E316B1141F9B1DA89
G3C6C151029ADB8F1A04E9A3639886FFE63596DED75BB126CED17215507E5597A
G361E660D5D90FB36C41053BFD72806BDB6219510000491B51DAFA18BC15EAC22
GD4EFE53BD0A660CBBF3EC285D8F800EBBD026427EFAACE7B0175E4E5A7433045
G05CB449304743EC0A4F903DCC9364316FB7DD575CC68A1CBD920FB62EDA4F193
G22140F9B936DD75EEE34C3A3C791C14A14AC768A6789B7D1E2291FD2AB35F099
