AXCT182b9dac-caf7-4083-996f-088825a4e1ca
HFFTYFRTYPE:Xiaomi 2201117TY 13
HFRFWFIRMWAREVERSION:0.9.12.6
HFPLTPILOTINCHARGE:Jose Manuel Sorli
HOSITSite:Figuerassa
HFCCLCOMPETITIONCLASS:FAI-3
HFGTYGLIDERTYPE:OZONE Zeno 2
HODTM100GPSDATUM:WGS-84
HFALPALTPRESSURE:ISA
HFALG:GEO
HFDTEDATE:020826,02
LXCTDEVICE eyJhcHAiOnsibmFtZSI6IlhDVHJhY2siLCJ2ZXJzaW9uQ29kZSI6OTEyNjAsInZlc
LXCTDEVICE nNpb25OYW1lIjoiMC45LjEyLjYifSwiZGV2aWNlIjp7ImJ1aWxkSWQiOiJUS1ExLj
LXCTDEVICE IyMTExNC4wMDEiLCJjcHVBQkkiOiJhcm02NC12OGEiLCJkZXZRdWV1ZUJ1aWxkIjo
LXCTDEVICE iZjIzYWFmMTQ4ZTVmYTBjYzBhMDUwM2VhODE2NTk3YzliYzQ4MDgwZCIsImRldmlj
LXCTDEVICE ZVN0cmluZyI6IlhpYW9taSAyMjAxMTE3VFkgMTMiLCJkaXNwbGF5Ijp7ImgiOjIxN
LXCTDEVICE zcsIm1tIjoxNy4zMjI4MzQsInciOjEwODB9LCJmaW5nZXJwcmludCI6IlJlZG1pL3
LXCTDEVICE NwZXNuX2VlYS9zcGVzbjoxMy9US1ExLjIyMTExNC4wMDEvVjgxNi4wLjUuMC5UR0t
LXCTDEVICE FVVhNOnVzZXIvcmVsZWFzZS1rZXlzIiwiaGFyZHdhcmUiOiJxY29tIiwibWFudWZh
LXCTDEVICE Y3R1cmVyIjoiWGlhb21pIiwibWVtb3J5Ijp7ImF2YWlsTWVtIjoxODYxMzc4MDQ4L
LXCTDEVICE CJmb3JlZ3JvdW5kQXBwVGhyZXNob2xkIjo3NTQ5NzQ3MiwibG93TWVtb3J5IjpmYW
LXCTDEVICE xzZSwidGhyZXNob2xkIjo2Nzk0NzcyNDgsInRvdGFsTWVtIjo1OTI4MzQ5Njk2fSw
LXCTDEVICE ibW9kZWwiOiIyMjAxMTE3VFkiLCJwcm9kdWN0Ijoic3Blc25fZWVhIn0sImRldmlj
LXCTDEVICE ZUlkIjoiMTgyYjlkYWMtY2FmNy00MDgzLTk5NmYtMDg4ODI1YTRlMWNhIiwib3MiO
LXCTDEVICE nsic2RrIjozMywidGltZXpvbmUiOiJFdXJvcGUvTWFkcmlkIiwidHlwZSI6IkFuZH
LXCTDEVICE JvaWQiLCJ2ZXJzaW9uIjoiMTMifX0=
LXCTSENSOR Sensors: GPS: i0 NMEA; qcom;MPSS.HA.1.1.c1-00027-KD_ALL_PACK-3.21
LXCTSENSOR 298.19;
I023636LAD3737LOD
LXCTEARTHMODEL WGS84
C020826125526000000000004 Competition task
C4207292N00149436ETAKEOFF Figuerassa
C4207287N00149439ESTART D03C
C4205329N00148844ETURN D04C
C4154724N00140902ETURN B32C
C4200841N00117338ETURN B56C
C4204612N00118329ETURN G11C
C4204612N00118329EFINISH G11C
C0000000N00000000ELANDING
B1255264204674N00118339EA000000045921
B1255274204673N00118338EA000000045954
B1255284204673N00118337EA000000045909
B1255294204672N00118337EA000000045976
B1255304204672N00118337EA000000045954
B1255314204672N00118337EA000000045853
B1255324204672N00118337EA000000045853
B1255334204672N00118337EA000000045853
B1255344204672N00118337EA000000045853
B1255354204672N00118337EA000000045853
B1255364204672N00118337EA000000045853
B1255374204672N00118337EA000000045853
B1255384204672N00118337EA000000045853
B1255394204672N00118337EA000000045853
B1255404204672N00118337EA000000045853
B1255414204672N00118337EA000000045821
B1255424204671N00118336EA000000045898
B1255434204671N00118336EA000000045964
B1255444204671N00118335EA000000045947
B1255454204670N00118334EA000000045969
B1255464204669N00118333EA000000045969
B1255474204668N00118333EA000000045850
B1255484204667N00118332EA000000045852
B1255494204666N00118331EA000000045856
B1255504204665N00118331EA000000045850
B1255514204664N00118330EA000000045856
B1255524204663N00118330EA000000045853
B1255534204662N00118330EA000000045884
B1255544204662N00118330EA000000045827
B1255554204661N00118331EA000000045952
B1255564204661N00118331EA000000045907
B1255574204660N00118332EA000000045832
B1255584204659N00118332EA000000045973
B1255594204659N00118332EA000000045912
B1256004204658N00118332EA000000045952
B1256014204657N00118332EA000000045993
B1256024204657N00118332EA000000045944
B1256034204656N00118332EA000000045986
B1256044204656N00118332EA000000045939
B1256054204655N00118333EA000000045973
B1256064204655N00118333EA000000045927
B1256074204654N00118333EA000000046068
B1256084204654N00118333EA000000045909
B1256094204653N00118334EA000000045941
B1256104204652N00118334EA000000045972
B1256114204652N00118334EA000000045910
B1256124204651N00118333EA000000046056
B1256134204650N00118333EA000000045982
B1256144204650N00118333EA000000045911
B1256154204649N00118333EA000000045930
B1256164204648N00118332EA000000045959
LXCTACTIVITY ON_FOOT 85
B1256174204647N00118332EA000000046088
B1256184204647N00118332EA000000046018
B1256194204646N00118332EA000000046039
B1256204204645N00118333EA000000046150
B1256214204644N00118332EA000000046189
B1256224204644N00118332EA000000046119
B1256234204643N00118332EA000000046139
B1256244204642N00118333EA000000046160
B1256254204642N00118333EA000000046102
B1256264204641N00118333EA000000046133
B1256274204640N00118333EA000000046174
B1256284204640N00118333EA000000046113
B1256294204639N00118333EA000000046142
B1256304204638N00118333EA000000046194
B1256314204638N00118333EA000000046137
B1256324204637N00118333EA000000046179
B1256334204637N00118334EA000000046111
B1256344204636N00118334EA000000046142
B1256354204635N00118334EA000000046171
B1256364204635N00118334EA000000046113
B1256374204634N00118334EA000000046153
B1256384204634N00118334EA000000046102
B1256394204633N00118334EA000000046150
B1256404204632N00118333EA000000046197
B1256414204632N00118333EA000000046143
B1256424204631N00118332EA000000046199
B1256434204631N00118332EA000000046143
B1256444204631N00118331EA000000046127
B1256454204631N00118330EA000000046209
B1256464204630N00118330EA000000046170
B1256474204630N00118329EA000000046150
B1256484204630N00118328EA000000046122
B1256494204629N00118327EA000000046186
B1256504204629N00118327EA000000046163
B1256514204629N00118327EA000000046141
B1256524204629N00118326EA000000046135
B1256534204629N00118325EA000000046126
B1256544204629N00118324EA000000046127
B1256554204629N00118324EA000000046131
B1256564204629N00118323EA000000046056
B1256574204629N00118323EA000000046093
B1256584204630N00118323EA000000046052
B1256594204631N00118322EA000000046019
B1257004204631N00118322EA000000046075
B1257014204632N00118322EA000000046011
B1257024204632N00118321EA000000046057
B1257034204633N00118321EA000000046137
B1257044204634N00118322EA000000046120
B1257054204634N00118322EA000000046291
B1257064204635N00118321EA000000046208
B1257074204635N00118321EA000000046145
B1257084204635N00118321EA000000046191
B1257094204636N00118320EA000000046158
B1257104204637N00118320EA000000046117
B1257114204637N00118320EA000000046266
B1257124204638N00118320EA000000046103
B1257134204638N00118319EA000000046268
B1257144204639N00118319EA000000046204
B1257154204639N00118318EA000000046209
B1257164204638N00118318EA000000046186
B1257174204638N00118318EA000000046164
B1257184204638N00118318EA000000046154
B1257194204638N00118318EA000000046154
B1257204204638N00118318EA000000046153
B1257214204638N00118318EA000000046143
B1257224204638N00118318EA000000046143
B1257234204638N00118318EA000000046143
B1257244204638N00118318EA000000046143
B1257254204638N00118318EA000000046130
B1257264204638N00118318EA000000046121
B1257274204638N00118318EA000000046220
B1257284204638N00118317EA000000046019
B1257294204638N00118317EA000000046018
LXCTSTATS eyJzdGF0cyI6eyJHUFMiOnsiYWx0Rml4TWV0aG9kIjp7ImRpZmZBcGlHZW9pZCI6MC
LXCTSTATS wiZGlmZkFwaU5vQ29ycmVjdGlvbiI6MH0sImFwaUNudCI6MCwiYmVhcmluZ0NvbXB1
LXCTSTATS dGVkIjowLCJubWVhQ250IjoyMDA4NDksInNwZWVkQ29tcHV0ZWQiOjB9LCJvcHRpU3
LXCTSTATS RhdHMiOnsib3B0aUxDb3VudCI6OTk2LCJvcHRpVGltZU1tcyI6NzYxMjU0NjYxfX19
LXCTFAICIVLCOMPLIANT false
G1C9C75C6CE790EEC2DB06FB719BDDA7125727A7FBB07E5B99E282B5184429601
G9B125DB81A9EDDCBE5E3F4237B79765086B1C6B8A828F75C860F729437BB3288
GBBC060BAC6B5A973147A7380009950AD8E1312EE53CAFCBFEAA55F7B89E932DD
GF277E563E42CEAC74609B6894B8EBCDC03FBF8A71A6D37BCE2E9A9926BBD801C
