AXFMSFP Flymaster Live, V1.0, S/N 561
HFFXA010
HFPLTPILOT:561-Pere Valles Milla
HFGTYGLIDERTYPE:0 paraglider
HFGIDGLIDERID:
HFDTM100GPSDATUM:WGS-1984
HFCIDCOMPETITIONID:14301
HFCCLCOMPETITIONCLASS:paraglider
HOSITSITE:Ager-ES
HFGPSRECEIVER:UBLOX,NEO8,56,50000,GPS,GLO,GAL
HFPRSPRESSALTSENSOR:FREESCALE,MPXA6115A,13608
HFRFWFIRMWAREVERSION:203o
HFRHWHARDWAREVERSION:1.0R2
HFFTYFRTYPE:Flymaster,LIVE
HFDTE050926
B1049234202754N00044782EA0136301563
B1049244202754N00044782EA0136301563
B1049254202754N00044782EA0136301563
B1049264202755N00044782EA0136301563
B1049274202754N00044783EA0136201563
B1049284202754N00044783EA0136301563
B1049294202754N00044783EA0136301563
B1049304202754N00044783EA0136301563
B1049314202754N00044783EA0136301563
B1049324202754N00044783EA0136301564
B1049334202754N00044784EA0136301564
B1049344202754N00044784EA0136401564
B1049354202754N00044783EA0136401564
B1049364202754N00044783EA0136301564
B1049374202753N00044782EA0136301564
B1049384202751N00044781EA0136301564
B1049394202749N00044780EA0136401565
B1049404202748N00044779EA0136501565
B1049414202747N00044778EA0136601566
B1049424202745N00044777EA0136601566
B1049434202743N00044775EA0136701568
B1049444202741N00044774EA0136901570
B1049454202739N00044773EA0137001571
B1049464202737N00044772EA0137101572
B1049474202735N00044771EA0137201573
B1049484202733N00044769EA0137401575
B1049494202730N00044768EA0137601577
B1049504202728N00044766EA0137801579
B1049514202727N00044763EA0138001581
B1049524202726N00044760EA0138101583
B1049534202725N00044758EA0138301584
B1049544202724N00044755EA0138501587
B1049554202723N00044753EA0138801590
B1049564202722N00044751EA0138901592
B1049574202721N00044750EA0139001593
B1049584202720N00044748EA0139201595
B1049594202719N00044746EA0139501598
B1050004202718N00044744EA0139701601
B1050014202717N00044743EA0140001604
B1050024202716N00044741EA0140201606
B1050034202716N00044739EA0140301608
B1050044202715N00044737EA0140501609
B1050054202714N00044734EA0140601611
B1050064202713N00044731EA0140701612
B1050074202712N00044729EA0140701612
B1050084202712N00044727EA0140701613
B1050094202711N00044725EA0140801613
B1050104202709N00044724EA0140801614
B1050114202707N00044722EA0140801614
B1050124202704N00044721EA0140801614
B1050134202702N00044719EA0140901615
B1050144202699N00044719EA0141001617
B1050154202697N00044719EA0141201618
B1050164202695N00044718EA0141301619
B1050174202693N00044717EA0141301619
B1050184202690N00044715EA0141301619
B1050194202688N00044713EA0141201619
B1050204202685N00044711EA0141201619
B1050214202683N00044709EA0141201619
B1050224202680N00044708EA0141301620
B1050234202678N00044709EA0141301620
B1050244202676N00044709EA0141301620
B1050254202673N00044711EA0141201619
B1050264202671N00044712EA0141101618
B1050274202668N00044714EA0141001616
B1050284202666N00044716EA0140901615
B1050294202663N00044718EA0140701613
B1050304202660N00044720EA0140601613
B1050314202657N00044723EA0140601612
B1050324202655N00044725EA0140501611
B1050334202653N00044727EA0140401610
B1050344202651N00044730EA0140301608
B1050354202649N00044734EA0140101607
B1050364202647N00044737EA0140001606
B1050374202645N00044741EA0139901605
B1050384202643N00044744EA0139801604
B1050394202641N00044748EA0139701603
B1050404202639N00044752EA0139601601
B1050414202637N00044758EA0139501600
B1050424202636N00044764EA0139401599
B1050434202634N00044769EA0139401599
B1050444202633N00044775EA0139301598
B1050454202631N00044780EA0139201597
B1050464202629N00044784EA0139201597
B1050474202628N00044789EA0139101596
B1050484202625N00044794EA0139101595
B1050494202624N00044799EA0139101595
B1050504202622N00044804EA0139101595
B1050514202620N00044809EA0139101595
B1050524202618N00044814EA0139001595
B1050534202616N00044819EA0139001595
B1050544202614N00044824EA0139001595
B1050554202612N00044830EA0139001594
B1050564202611N00044835EA0139001594
B1050574202609N00044840EA0139001595
B1050584202607N00044845EA0139001595
B1050594202605N00044850EA0139001595
B1051004202603N00044855EA0139101596
B1051014202601N00044861EA0139101596
B1051024202599N00044866EA0139101596
B1051034202597N00044871EA0139101596
B1051044202595N00044876EA0139101595
B1051054202593N00044882EA0139001595
B1051064202591N00044888EA0139001595
B1051074202589N00044894EA0139001594
B1051084202587N00044900EA0138901594
B1051094202585N00044906EA0138801593
B1051104202583N00044912EA0138701592
B1051114202581N00044919EA0138601590
B1051124202579N00044925EA0138501590
B1051134202577N00044932EA0138401589
B1051144202575N00044939EA0138401589
B1051154202573N00044946EA0138401588
B1051164202571N00044953EA0138401588
B1051174202570N00044960EA0138401587
B1051184202568N00044967EA0138301587
B1051194202566N00044974EA0138201586
B1051204202564N00044982EA0138101585
B1051214202562N00044989EA0138101584
B1051224202560N00044996EA0138001584
B1051234202558N00045002EA0138001584
B1051244202556N00045007EA0138001584
B1051254202554N00045013EA0138001584
B1051264202551N00045018EA0137901583
B1051274202548N00045023EA0137801582
B1051284202545N00045029EA0137801582
B1051294202543N00045035EA0137701581
B1051304202540N00045041EA0137701581
B1051314202537N00045048EA0137701580
B1051324202534N00045054EA0137701580
B1051334202531N00045060EA0137601580
B1051344202529N00045067EA0137601579
B1051354202526N00045074EA0137501579
B1051364202524N00045081EA0137501578
B1051374202522N00045089EA0137401577
B1051384202519N00045096EA0137301576
B1051394202517N00045103EA0137301576
B1051404202515N00045110EA0137201575
B1051414202512N00045117EA0137001573
B1051424202508N00045123EA0136801571
B1051434202503N00045127EA0136801570
B1051444202498N00045130EA0136701569
B1051454202493N00045131EA0136701569
B1051464202488N00045132EA0136801569
B1051474202483N00045134EA0136901570
B1051484202479N00045135EA0137001571
B1051494202475N00045136EA0137001571
B1051504202471N00045137EA0137001571
B1051514202467N00045138EA0137001571
B1051524202462N00045139EA0137101571
B1051534202457N00045139EA0137101572
B1051544202453N00045139EA0137301574
B1051554202449N00045139EA0137401575
B1051564202445N00045138EA0137501576
B1051574202440N00045137EA0137601577
B1051584202436N00045136EA0137801579
B1051594202432N00045135EA0137901580
B1052004202427N00045135EA0138001582
B1052014202423N00045134EA0138101583
B1052024202418N00045133EA0138101583
B1052034202414N00045133EA0138101583
B1052044202409N00045131EA0138001582
B1052054202405N00045130EA0137901582
B1052064202400N00045129EA0137901581
B1052074202395N00045128EA0137801581
B1052084202390N00045127EA0137801581
B1052094202385N00045126EA0137801581
B1052104202381N00045125EA0137901581
B1052114202377N00045123EA0137901581
B1052124202373N00045122EA0137901580
B1052134202368N00045121EA0137901581
B1052144202363N00045119EA0138001582
B1052154202358N00045117EA0138101583
B1052164202353N00045116EA0138201584
B1052174202348N00045114EA0138201584
B1052184202344N00045113EA0138201584
B1052194202339N00045112EA0138101583
B1052204202334N00045111EA0138001582
B1052214202330N00045111EA0137901581
B1052224202326N00045111EA0137901581
B1052234202321N00045111EA0137701579
B1052244202317N00045111EA0137501577
B1052254202312N00045110EA0137301574
B1052264202307N00045110EA0137001572
B1052274202302N00045109EA0136801570
B1052284202297N00045108EA0136701568
B1052294202292N00045107EA0136501566
B1052304202288N00045106EA0136301564
B1052314202283N00045106EA0136101562
B1052324202279N00045106EA0136001561
B1052334202275N00045105EA0135801559
B1052344202270N00045104EA0135701558
B1052354202265N00045102EA0135701557
B1052364202261N00045101EA0135601556
B1052374202257N00045099EA0135601556
B1052384202254N00045097EA0135601556
B1052394202252N00045095EA0135501555
B1052404202249N00045093EA0135401554
B1052414202247N00045091EA0135101552
B1052424202243N00045089EA0134901549
B1052434202240N00045087EA0134701547
B1052444202236N00045084EA0134401544
B1052454202232N00045082EA0134201542
B1052464202229N00045079EA0134001540
B1052474202225N00045077EA0133801538
B1052484202222N00045075EA0133601535
B1052494202218N00045073EA0133401533
B1052504202214N00045071EA0133201531
B1052514202211N00045068EA0133001529
B1052524202207N00045066EA0132801527
B1052534202203N00045064EA0132701525
B1052544202200N00045063EA0132501523
B1052554202196N00045061EA0132401522
B1052564202192N00045059EA0132101520
B1052574202187N00045058EA0132001517
B1052584202182N00045057EA0131801515
B1052594202177N00045057EA0131601513
B1053004202173N00045057EA0131501511
B1053014202168N00045057EA0131301510
B1053024202163N00045056EA0131201509
B1053034202159N00045056EA0131101508
B1053044202155N00045055EA0131001506
B1053054202151N00045053EA0130701504
B1053064202147N00045051EA0130401501
B1053074202143N00045047EA0130101497
B1053084202138N00045042EA0129901495
B1053094202134N00045038EA0129701494
B1053104202130N00045034EA0129801493
B1053114202126N00045031EA0129701492
B1053124202123N00045028EA0129601491
B1053134202120N00045025EA0129501489
B1053144202117N00045021EA0129301486
B1053154202113N00045017EA0129101484
B1053164202110N00045012EA0128801481
B1053174202108N00045007EA0128601479
B1053184202105N00045002EA0128401477
B1053194202103N00044995EA0128201475
B1053204202101N00044989EA0128201474
B1053214202099N00044983EA0128101473
B1053224202099N00044977EA0128101473
B1053234202099N00044972EA0128101473
B1053244202099N00044968EA0127801470
B1053254202099N00044963EA0127401467
B1053264202098N00044957EA0127101462
B1053274202097N00044950EA0126801459
B1053284202096N00044943EA0126601458
B1053294202095N00044936EA0126601457
B1053304202094N00044931EA0126601457
B1053314202094N00044926EA0126501456
B1053324202093N00044920EA0126601456
B1053334202093N00044915EA0126501456
B1053344202093N00044910EA0126501456
B1053354202092N00044905EA0126501456
B1053364202092N00044900EA0126501456
B1053374202092N00044894EA0126501456
B1053384202091N00044888EA0126401455
B1053394202091N00044881EA0126401455
B1053404202091N00044874EA0126401455
B1053414202091N00044867EA0126401455
B1053424202091N00044861EA0126401455
B1053434202091N00044855EA0126401455
B1053444202091N00044850EA0126301455
B1053454202091N00044845EA0126301455
B1053464202091N00044839EA0126101453
B1053474202090N00044833EA0125901452
B1053484202090N00044827EA0125801450
B1053494202090N00044821EA0125601447
B1053504202090N00044814EA0125501446
B1053514202090N00044807EA0125401446
B1053524202089N00044800EA0125501446
B1053534202089N00044793EA0125501447
B1053544202089N00044788EA0125601448
B1053554202089N00044784EA0125601449
B1053564202088N00044781EA0125601449
B1053574202088N00044779EA0125501448
B1053584202088N00044776EA0125201446
B1053594202088N00044773EA0124901443
B1054004202088N00044768EA0124501439
B1054014202088N00044762EA0124401436
B1054024202089N00044757EA0124201434
B1054034202089N00044753EA0124101432
B1054044202090N00044750EA0124001431
B1054054202091N00044747EA0123701429
B1054064202090N00044745EA0123401426
B1054074202090N00044742EA0123101421
B1054084202088N00044738EA0122601416
B1054094202087N00044734EA0122201412
B1054104202086N00044729EA0121901408
B1054114202084N00044725EA0121601405
B1054124202083N00044720EA0121301403
B1054134202082N00044716EA0121101400
B1054144202081N00044712EA0120901398
B1054154202079N00044708EA0120501395
B1054164202077N00044703EA0120101391
B1054174202075N00044698EA0120101388
B1054184202074N00044693EA0119901386
B1054194202072N00044688EA0119701384
B1054204202071N00044684EA0119501382
B1054214202071N00044680EA0119301379
B1054224202070N00044675EA0118901376
B1054234202069N00044670EA0118501373
B1054244202068N00044664EA0118501370
B1054254202067N00044657EA0118301368
B1054264202066N00044651EA0118201368
B1054274202065N00044645EA0118201368
B1054284202064N00044641EA0118201368
B1054294202064N00044636EA0118101367
B1054304202064N00044632EA0118001366
B1054314202064N00044627EA0117801365
B1054324202064N00044623EA0117501363
B1054334202064N00044617EA0117301360
B1054344202064N00044610EA0117201357
B1054354202064N00044603EA0117001356
B1054364202063N00044595EA0117001356
B1054374202063N00044589EA0117001356
B1054384202064N00044582EA0117001356
B1054394202065N00044576EA0117001356
B1054404202066N00044571EA0116801355
B1054414202066N00044565EA0116601352
B1054424202067N00044558EA0116401349
B1054434202068N00044550EA0116301348
B1054444202068N00044542EA0116201348
B1054454202069N00044534EA0116301348
B1054464202069N00044528EA0116401348
B1054474202069N00044521EA0116401349
B1054484202070N00044514EA0116301348
B1054494202070N00044507EA0116401348
B1054504202071N00044500EA0116401349
B1054514202072N00044494EA0116401348
B1054524202073N00044487EA0116301348
B1054534202074N00044481EA0116301348
B1054544202075N00044474EA0116301348
B1054554202077N00044468EA0116301349
B1054564202078N00044462EA0116401349
B1054574202079N00044457EA0116501350
B1054584202080N00044451EA0116601351
B1054594202081N00044446EA0116801352
B1055004202081N00044442EA0116901354
B1055014202080N00044438EA0117001355
B1055024202077N00044436EA0117001355
B1055034202074N00044437EA0117001355
B1055044202069N00044439EA0116901353
B1055054202064N00044442EA0116801352
B1055064202061N00044447EA0116801352
B1055074202058N00044455EA0116601351
B1055084202058N00044464EA0116501349
B1055094202058N00044474EA0116301348
B1055104202059N00044484EA0116301347
B1055114202059N00044493EA0116301348
B1055124202058N00044501EA0116401349
B1055134202057N00044508EA0116301349
B1055144202054N00044513EA0116201348
B1055154202050N00044516EA0116101346
B1055164202046N00044516EA0115901345
B1055174202043N00044514EA0115901345
B1055184202042N00044510EA0115801343
B1055194202042N00044506EA0115701342
B1055204202043N00044502EA0115601341
B1055214202045N00044498EA0115401339
B1055224202048N00044493EA0115301338
B1055234202050N00044488EA0115201336
B1055244202052N00044484EA0115201335
B1055254202054N00044480EA0115001334
B1055264202057N00044476EA0114801333
B1055274202060N00044472EA0114601330
B1055284202062N00044466EA0114401328
B1055294202065N00044459EA0114301327
B1055304202067N00044453EA0114301327
B1055314202068N00044447EA0114301328
B1055324202070N00044443EA0114401329
B1055334202072N00044438EA0114401330
B1055344202074N00044434EA0114401330
B1055354202076N00044430EA0114401330
B1055364202077N00044426EA0114401330
B1055374202079N00044421EA0114301330
B1055384202080N00044416EA0114301329
B1055394202082N00044410EA0114301330
B1055404202083N00044404EA0114401333
B1055414202084N00044399EA0114501336
B1055424202086N00044394EA0114601337
B1055434202087N00044388EA0114801338
B1055444202087N00044383EA0114901339
B1055454202088N00044379EA0115001340
B1055464202088N00044376EA0115001340
B1055474202088N00044373EA0114901339
B1055484202089N00044368EA0114801338
B1055494202090N00044364EA0114701337
B1055504202091N00044359EA0114601335
B1055514202092N00044354EA0114501334
B1055524202093N00044349EA0114401333
B1055534202095N00044343EA0114301331
B1055544202096N00044338EA0114301330
B1055554202098N00044333EA0114201330
B1055564202099N00044329EA0114101329
B1055574202101N00044324EA0114001327
B1055584202103N00044318EA0113901326
B1055594202104N00044313EA0113801325
B1056004202105N00044306EA0113801324
B1056014202107N00044300EA0113801323
B1056024202108N00044293EA0113701323
B1056034202108N00044287EA0113601322
B1056044202109N00044281EA0113501321
B1056054202109N00044276EA0113301319
B1056064202108N00044270EA0113101316
B1056074202108N00044264EA0112901314
B1056084202108N00044258EA0112701312
B1056094202109N00044251EA0112601310
B1056104202109N00044245EA0112401309
B1056114202110N00044239EA0112301307
B1056124202110N00044233EA0112101305
B1056134202111N00044226EA0111901303
B1056144202111N00044220EA0111801301
B1056154202112N00044213EA0111701299
B1056164202113N00044206EA0111501298
B1056174202114N00044199EA0111401296
B1056184202114N00044192EA0111201294
B1056194202114N00044185EA0111001292
B1056204202114N00044178EA0110801290
B1056214202115N00044170EA0110701288
B1056224202116N00044163EA0110601287
B1056234202117N00044156EA0110401286
B1056244202118N00044150EA0110301284
B1056254202118N00044142EA0110101282
B1056264202117N00044135EA0110001281
B1056274202117N00044127EA0110001280
B1056284202117N00044120EA0110001280
B1056294202117N00044112EA0110101280
B1056304202116N00044105EA0110101281
B1056314202116N00044099EA0110201281
B1056324202115N00044093EA0110201281
B1056334202113N00044088EA0110101280
B1056344202110N00044085EA0110101280
B1056354202107N00044082EA0110101280
B1056364202103N00044082EA0110001280
B1056374202100N00044082EA0110101282
B1056384202098N00044084EA0110201283
B1056394202096N00044086EA0110101282
B1056404202096N00044090EA0110001281
B1056414202095N00044095EA0110001280
B1056424202095N00044100EA0109901279
B1056434202096N00044105EA0109901279
B1056444202097N00044109EA0109901279
B1056454202098N00044114EA0109801277
B1056464202099N00044118EA0109601274
B1056474202099N00044123EA0109301270
B1056484202098N00044129EA0109001267
B1056494202096N00044133EA0109001265
B1056504202094N00044137EA0108901264
B1056514202091N00044141EA0108801263
B1056524202090N00044144EA0108701263
B1056534202088N00044147EA0108601262
B1056544202087N00044151EA0108501260
B1056554202085N00044154EA0108401259
B1056564202083N00044158EA0108201257
B1056574202081N00044161EA0108001255
B1056584202079N00044165EA0107901253
B1056594202076N00044168EA0107701252
B1057004202074N00044172EA0107601250
B1057014202071N00044175EA0107401249
B1057024202069N00044179EA0107201247
B1057034202067N00044182EA0107001244
B1057044202064N00044186EA0106801242
B1057054202062N00044190EA0106701241
B1057064202059N00044195EA0106501239
B1057074202057N00044199EA0106401237
B1057084202055N00044204EA0106101235
B1057094202054N00044210EA0105901232
B1057104202052N00044215EA0105701230
B1057114202050N00044220EA0105501228
B1057124202047N00044225EA0105301225
B1057134202045N00044231EA0105101223
B1057144202044N00044236EA0104901221
B1057154202042N00044241EA0104801220
B1057164202041N00044245EA0104601218
B1057174202040N00044250EA0104401216
B1057184202039N00044255EA0104301214
B1057194202037N00044260EA0104301214
B1057204202036N00044264EA0104401216
B1057214202035N00044267EA0104601218
B1057224202034N00044270EA0104701219
B1057234202031N00044273EA0104801220
B1057244202028N00044275EA0104901221
B1057254202025N00044276EA0104901222
B1057264202022N00044276EA0105001223
B1057274202020N00044275EA0105101225
B1057284202017N00044274EA0105201226
B1057294202015N00044273EA0105401227
B1057304202013N00044271EA0105501228
B1057314202012N00044267EA0105601229
B1057324202011N00044264EA0105601230
B1057334202010N00044260EA0105701231
B1057344202009N00044257EA0105801232
B1057354202007N00044255EA0105801232
B1057364202004N00044255EA0105801231
B1057374202001N00044256EA0105801230
B1057384201999N00044259EA0105801231
B1057394201997N00044262EA0105901233
B1057404201997N00044266EA0106001233
B1057414201998N00044270EA0106001234
B1057424201998N00044274EA0105901233
B1057434201997N00044278EA0105901233
B1057444201995N00044282EA0106001234
B1057454201993N00044285EA0106101235
B1057464201990N00044286EA0106101235
B1057474201987N00044286EA0106101236
B1057484201983N00044285EA0106201237
B1057494201980N00044283EA0106501239
B1057504201976N00044280EA0106801241
B1057514201974N00044277EA0107101244
B1057524201972N00044273EA0107301246
B1057534201972N00044268EA0107401247
B1057544201971N00044262EA0107401247
B1057554201972N00044255EA0107401247
B1057564201973N00044248EA0107301247
B1057574201973N00044242EA0107301247
B1057584201972N00044236EA0107301247
B1057594201972N00044229EA0107301247
B1058004201972N00044223EA0107401248
B1058014201971N00044216EA0107501249
B1058024201970N00044210EA0107601251
B1058034201970N00044206EA0107601252
B1058044201970N00044203EA0107401250
B1058054201970N00044200EA0107001247
B1058064201970N00044195EA0106601243
B1058074201970N00044189EA0106201238
B1058084201969N00044183EA0106001235
B1058094201968N00044177EA0105701233
B1058104201967N00044172EA0105501231
B1058114201966N00044167EA0105301228
B1058124201965N00044162EA0105101226
B1058134201963N00044156EA0104901223
B1058144201962N00044151EA0104801222
B1058154201961N00044145EA0104601220
B1058164201960N00044139EA0104501219
B1058174201960N00044134EA0104401217
B1058184201959N00044128EA0104301216
B1058194201958N00044122EA0104201215
B1058204201957N00044116EA0104101214
B1058214201956N00044111EA0104101214
B1058224201954N00044107EA0104101214
B1058234201952N00044103EA0104101214
B1058244201949N00044099EA0104001213
B1058254201947N00044094EA0104001212
B1058264201945N00044090EA0104001212
B1058274201943N00044085EA0103901212
B1058284201941N00044080EA0104001212
B1058294201938N00044075EA0104001212
B1058304201935N00044071EA0104101213
B1058314201933N00044067EA0104101214
B1058324201930N00044064EA0104201215
B1058334201928N00044060EA0104301216
B1058344201925N00044056EA0104501217
B1058354201922N00044052EA0104601219
B1058364201919N00044048EA0104901221
B1058374201917N00044046EA0105101224
B1058384201916N00044045EA0105101224
B1058394201915N00044044EA0105101224
B1058404201913N00044043EA0104901222
B1058414201910N00044041EA0104701221
B1058424201907N00044038EA0104501219
B1058434201904N00044035EA0104501219
B1058444201902N00044033EA0104501219
B1058454201899N00044032EA0104501219
B1058464201896N00044030EA0104401218
B1058474201893N00044029EA0104401218
B1058484201890N00044027EA0104301217
B1058494201887N00044026EA0104101216
B1058504201883N00044024EA0104001214
B1058514201879N00044022EA0103801213
B1058524201874N00044021EA0103601211
B1058534201870N00044020EA0103501210
B1058544201866N00044019EA0103301208
B1058554201862N00044019EA0103201206
B1058564201859N00044018EA0103101205
B1058574201855N00044017EA0102901203
B1058584201851N00044018EA0102701201
B1058594201847N00044019EA0102501198
B1059004201842N00044022EA0102301196
B1059014201838N00044026EA0102201194
B1059024201835N00044030EA0102101193
B1059034201832N00044034EA0102001191
B1059044201829N00044039EA0101801190
B1059054201827N00044043EA0101701188
B1059064201825N00044048EA0101501187
B1059074201822N00044053EA0101401185
B1059084201819N00044057EA0101201183
B1059094201817N00044061EA0101101182
B1059104201814N00044066EA0100901180
B1059114201813N00044071EA0100801179
B1059124201811N00044076EA0100701178
B1059134201809N00044081EA0100501176
B1059144201807N00044085EA0100401174
B1059154201805N00044090EA0100301173
B1059164201803N00044096EA0100201171
B1059174201802N00044101EA0100201171
B1059184201800N00044106EA0100201172
B1059194201799N00044110EA0100401173
B1059204201797N00044114EA0100601175
B1059214201795N00044116EA0100701175
B1059224201793N00044119EA0100701175
B1059234201790N00044123EA0100601174
B1059244201789N00044129EA0100501173
B1059254201788N00044135EA0100501173
B1059264201788N00044141EA0100501173
B1059274201788N00044147EA0100501173
B1059284201788N00044152EA0100501173
B1059294201789N00044158EA0100401173
B1059304201789N00044163EA0100401172
B1059314201790N00044169EA0100301171
B1059324201790N00044174EA0100201170
B1059334201790N00044180EA0100101169
B1059344201790N00044186EA0100101169
B1059354201791N00044191EA0100001168
B1059364201791N00044197EA0100001169
B1059374201792N00044203EA0100001169
B1059384201792N00044208EA0100001169
B1059394201792N00044213EA0100001168
B1059404201792N00044218EA0099901166
B1059414201792N00044224EA0099801166
B1059424201793N00044229EA0099801165
B1059434201793N00044235EA0099701165
B1059444201794N00044241EA0099701164
B1059454201795N00044247EA0099701164
B1059464201797N00044252EA0099501162
B1059474201798N00044258EA0099301161
B1059484201799N00044264EA0099101159
B1059494201801N00044270EA0098901158
B1059504201802N00044276EA0098801156
B1059514201802N00044283EA0098701154
B1059524201803N00044289EA0098501152
B1059534201804N00044296EA0098401151
B1059544201804N00044302EA0098201149
B1059554201805N00044309EA0098101148
B1059564201806N00044316EA0097901146
B1059574201807N00044322EA0097801145
B1059584201808N00044329EA0097601143
B1059594201809N00044336EA0097401141
B1100004201810N00044344EA0097201136
B1100014201811N00044352EA0097001134
B1100024201812N00044360EA0096701133
B1100034201812N00044368EA0096601131
B1100044201812N00044375EA0096501130
B1100054201813N00044382EA0096201128
B1100064201814N00044390EA0095901124
B1100074201815N00044399EA0095701120
B1100084201816N00044408EA0095501118
B1100094201816N00044417EA0095301117
B1100104201817N00044424EA0095201117
B1100114201817N00044431EA0095001115
B1100124201818N00044438EA0094801114
B1100134201818N00044446EA0094601111
B1100144201819N00044455EA0094401108
B1100154201819N00044464EA0094201107
B1100164201819N00044472EA0094101106
B1100174201819N00044480EA0094101106
B1100184201819N00044486EA0094101105
B1100194201819N00044493EA0093901103
B1100204201819N00044499EA0093801102
B1100214201818N00044506EA0093701101
B1100224201818N00044513EA0093601100
B1100234201818N00044520EA0093501099
B1100244201818N00044527EA0093401097
B1100254201818N00044534EA0093301096
B1100264201818N00044541EA0093101094
B1100274201817N00044548EA0092901092
B1100284201817N00044555EA0092801091
B1100294201817N00044562EA0092701090
B1100304201817N00044570EA0092601089
B1100314201817N00044577EA0092401087
B1100324201818N00044584EA0092301085
B1100334201819N00044592EA0092101083
B1100344201819N00044600EA0091901081
B1100354201819N00044607EA0091701079
B1100364201819N00044615EA0091401076
B1100374201819N00044624EA0091101073
B1100384201819N00044633EA0091101070
B1100394201818N00044642EA0090901070
B1100404201818N00044650EA0090901070
B1100414201817N00044658EA0090801069
B1100424201817N00044665EA0090701068
B1100434201818N00044672EA0090601066
B1100444201818N00044681EA0090501064
B1100454201818N00044689EA0090401064
B1100464201818N00044698EA0090401064
B1100474201817N00044707EA0090501064
B1100484201817N00044715EA0090501065
B1100494201816N00044723EA0090501065
B1100504201814N00044730EA0090601066
B1100514201813N00044737EA0090701067
B1100524201811N00044743EA0090601067
B1100534201809N00044749EA0090501066
B1100544201808N00044756EA0090301063
B1100554201806N00044763EA0090101061
B1100564201805N00044772EA0089901059
B1100574201803N00044780EA0089801058
B1100584201802N00044788EA0089701057
B1100594201801N00044795EA0089601056
B1101004201799N00044802EA0089501055
B1101014201797N00044809EA0089401053
B1101024201795N00044816EA0089301052
B1101034201793N00044823EA0089101051
B1101044201792N00044830EA0089001050
B1101054201790N00044836EA0088701047
B1101064201789N00044843EA0088401043
B1101074201787N00044851EA0088301041
B1101084201785N00044858EA0088101038
B1101094201783N00044864EA0087901036
B1101104201781N00044868EA0087901035
B1101114201779N00044871EA0087801034
B1101124201777N00044874EA0087701033
B1101134201774N00044877EA0087501031
B1101144201771N00044881EA0087401029
B1101154201768N00044884EA0087301028
B1101164201765N00044887EA0087301027
B1101174201762N00044889EA0087201027
B1101184201760N00044893EA0087201026
B1101194201757N00044896EA0087101025
B1101204201755N00044899EA0087001024
B1101214201753N00044903EA0086801022
B1101224201750N00044906EA0086701021
B1101234201747N00044910EA0086501019
B1101244201744N00044913EA0086501019
B1101254201740N00044916EA0086401018
B1101264201737N00044918EA0086301018
B1101274201733N00044920EA0086201016
B1101284201729N00044923EA0086101015
B1101294201725N00044927EA0086001013
B1101304201720N00044930EA0085901013
B1101314201715N00044934EA0085901013
B1101324201711N00044937EA0085901013
B1101334201708N00044941EA0086001014
B1101344201704N00044944EA0086101017
B1101354201701N00044946EA0086201019
B1101364201699N00044948EA0086201019
B1101374201696N00044951EA0086201018
B1101384201693N00044953EA0086101018
B1101394201690N00044954EA0085901017
B1101404201686N00044956EA0085701016
B1101414201682N00044958EA0085601013
B1101424201678N00044960EA0085401012
B1101434201674N00044961EA0085301011
B1101444201671N00044961EA0085201009
B1101454201667N00044962EA0085101008
B1101464201663N00044962EA0085001007
B1101474201659N00044963EA0085101006
B1101484201655N00044964EA0085101006
B1101494201651N00044964EA0085101007
B1101504201647N00044964EA0085101007
B1101514201643N00044965EA0085101006
B1101524201639N00044965EA0085101006
B1101534201634N00044966EA0085101007
B1101544201630N00044966EA0085201007
B1101554201625N00044966EA0085301009
B1101564201621N00044965EA0085401010
B1101574201618N00044965EA0085501011
B1101584201614N00044963EA0085501012
B1101594201610N00044962EA0085401010
B1102004201605N00044961EA0085201008
B1102014201600N00044959EA0085101007
B1102024201595N00044958EA0085101007
B1102034201590N00044956EA0085001007
B1102044201585N00044955EA0085001007
B1102054201581N00044954EA0085001007
B1102064201578N00044952EA0085001006
B1102074201575N00044950EA0084901006
B1102084201571N00044948EA0084901005
B1102094201567N00044946EA0084601003
B1102104201563N00044944EA0084501002
B1102114201559N00044941EA0084401000
B1102124201554N00044938EA0084301000
B1102134201550N00044936EA0084200998
B1102144201546N00044934EA0084100997
B1102154201542N00044933EA0083900995
B1102164201538N00044931EA0083700993
B1102174201533N00044930EA0083600991
B1102184201529N00044929EA0083500990
B1102194201525N00044926EA0083400989
B1102204201521N00044923EA0083300988
B1102214201517N00044920EA0083200987
B1102224201512N00044917EA0083200986
B1102234201508N00044915EA0083200986
B1102244201504N00044913EA0083100985
B1102254201500N00044912EA0083000984
B1102264201495N00044910EA0082900982
B1102274201490N00044909EA0082700980
B1102284201485N00044907EA0082600979
B1102294201481N00044906EA0082600979
B1102304201476N00044905EA0082600979
B1102314201472N00044903EA0082600979
B1102324201468N00044903EA0082600979
B1102334201463N00044902EA0082400978
B1102344201459N00044903EA0082300976
B1102354201455N00044903EA0082000974
B1102364201451N00044902EA0081800971
B1102374201447N00044901EA0081500968
B1102384201443N00044900EA0081200965
B1102394201439N00044899EA0080900963
B1102404201434N00044898EA0080700960
B1102414201430N00044896EA0080400957
B1102424201425N00044895EA0080200954
B1102434201421N00044892EA0079900952
B1102444201416N00044890EA0079700950
B1102454201413N00044887EA0079500947
B1102464201409N00044885EA0079300945
B1102474201404N00044882EA0079100943
B1102484201400N00044880EA0079000941
B1102494201396N00044878EA0078900940
B1102504201392N00044876EA0078700938
B1102514201388N00044873EA0078500936
B1102524201384N00044871EA0078300933
B1102534201379N00044868EA0078000930
B1102544201374N00044865EA0077800928
B1102554201369N00044862EA0077700927
B1102564201366N00044859EA0077500925
B1102574201362N00044856EA0077200923
B1102584201358N00044854EA0076800919
B1102594201354N00044851EA0076300914
B1103004201349N00044848EA0076100909
B1103014201343N00044845EA0075700906
B1103024201338N00044842EA0075500904
B1103034201334N00044840EA0075400902
B1103044201331N00044838EA0075200900
B1103054201327N00044836EA0075000898
B1103064201323N00044833EA0074700895
B1103074201319N00044830EA0074500891
B1103084201314N00044826EA0074200889
B1103094201310N00044822EA0074000887
B1103104201306N00044819EA0073800885
B1103114201302N00044815EA0073700883
B1103124201297N00044811EA0073600882
B1103134201293N00044807EA0073600882
B1103144201289N00044803EA0073700882
B1103154201286N00044799EA0073800884
B1103164201283N00044795EA0073900884
B1103174201280N00044790EA0073800883
B1103184201276N00044786EA0073600882
B1103194201272N00044781EA0073600881
B1103204201268N00044777EA0073600881
B1103214201265N00044773EA0073700883
B1103224201262N00044769EA0073700884
B1103234201259N00044766EA0073700884
B1103244201256N00044763EA0073700884
B1103254201253N00044759EA0073800884
B1103264201250N00044754EA0073800885
B1103274201249N00044750EA0073800886
B1103284201248N00044745EA0073700885
B1103294201248N00044740EA0073700884
B1103304201247N00044734EA0073600883
B1103314201247N00044728EA0073500882
B1103324201246N00044722EA0073400881
B1103334201246N00044715EA0073300880
B1103344201246N00044709EA0073300880
B1103354201245N00044704EA0073300880
B1103364201245N00044698EA0073300880
B1103374201245N00044692EA0073400880
B1103384201245N00044685EA0073400880
B1103394201246N00044679EA0073500881
B1103404201247N00044674EA0073400881
B1103414201249N00044669EA0073400881
B1103424201251N00044664EA0073400881
B1103434201253N00044659EA0073300880
B1103444201256N00044654EA0073300879
B1103454201258N00044649EA0073200878
B1103464201259N00044642EA0073200878
B1103474201260N00044636EA0073200878
B1103484201259N00044630EA0073200878
B1103494201259N00044625EA0073100877
B1103504201258N00044620EA0073000876
B1103514201256N00044615EA0072800875
B1103524201253N00044610EA0072600874
B1103534201250N00044606EA0072400872
B1103544201246N00044605EA0072200870
B1103554201242N00044605EA0072000867
B1103564201239N00044606EA0071700864
B1103574201235N00044608EA0071500861
B1103584201230N00044610EA0071300859
B1103594201227N00044613EA0071000857
B1104004201224N00044616EA0070800855
B1104014201221N00044620EA0070600852
B1104024201217N00044625EA0070400849
B1104034201214N00044629EA0070100847
B1104044201210N00044633EA0069800844
B1104054201206N00044637EA0069600842
B1104064201202N00044642EA0069500840
B1104074201199N00044647EA0069400838
B1104084201195N00044652EA0069300838
B1104094201192N00044656EA0069300838
B1104104201190N00044662EA0069100836
B1104114201187N00044668EA0069000834
B1104124201185N00044674EA0068900833
B1104134201181N00044679EA0068700832
B1104144201176N00044681EA0068600831
B1104154201171N00044681EA0068500830
B1104164201166N00044678EA0068500828
B1104174201162N00044674EA0068400827
B1104184201160N00044668EA0068300826
B1104194201161N00044661EA0068200824
B1104204201163N00044655EA0068100823
B1104214201167N00044650EA0068000821
B1104224201170N00044647EA0067900821
B1104234201174N00044644EA0067800820
B1104244201178N00044642EA0067700818
B1104254201182N00044639EA0067500816
B1104264201186N00044637EA0067300814
B1104274201190N00044635EA0067100812
B1104284201193N00044631EA0066900810
B1104294201196N00044627EA0066700808
B1104304201198N00044622EA0066500805
B1104314201199N00044617EA0066300803
B1104324201200N00044613EA0066100801
B1104334201202N00044609EA0066100800
B1104344201204N00044604EA0066100800
B1104354201206N00044600EA0066000799
B1104364201208N00044596EA0065900797
B1104374201210N00044591EA0065700794
B1104384201212N00044584EA0065500792
B1104394201212N00044578EA0065400791
B1104404201212N00044573EA0065200790
B1104414201211N00044568EA0065100788
B1104424201209N00044563EA0064900786
B1104434201206N00044559EA0064600783
B1104444201203N00044554EA0064500781
B1104454201200N00044549EA0064400780
B1104464201197N00044546EA0064300779
B1104474201193N00044544EA0064200778
B1104484201189N00044544EA0064000776
B1104494201184N00044546EA0063800773
B1104504201180N00044550EA0063600771
B1104514201177N00044555EA0063500770
B1104524201174N00044560EA0063400769
B1104534201172N00044565EA0063400768
B1104544201168N00044570EA0063300769
B1104554201164N00044572EA0063300768
B1104564201159N00044573EA0063300768
B1104574201154N00044573EA0063300768
B1104584201149N00044573EA0063100768
B1104594201145N00044575EA0063000767
B1105004201142N00044579EA0062900765
B1105014201138N00044583EA0062800764
B1105024201134N00044586EA0062800764
B1105034201130N00044587EA0062800764
B1105044201126N00044586EA0062700764
B1105054201123N00044583EA0062700763
B1105064201121N00044580EA0062600763
B1105074201118N00044576EA0062400761
B1105084201115N00044572EA0062300760
B1105094201112N00044567EA0062100758
B1105104201108N00044562EA0062000757
B1105114201105N00044557EA0061900757
B1105124201102N00044552EA0061900756
B1105134201099N00044550EA0061700754
B1105144201095N00044550EA0061400749
B1105154201091N00044552EA0061200747
B1105164201087N00044554EA0061100746
B1105174201084N00044555EA0061100746
B1105184201081N00044557EA0061100746
B1105194201079N00044559EA0061000745
B1105204201076N00044561EA0060800743
B1105214201073N00044563EA0060600741
B1105224201069N00044565EA0060400740
B1105234201064N00044567EA0060300741
B1105244201061N00044568EA0060300741
B1105254201058N00044569EA0060200740
B1105264201056N00044569EA0060100740
B1105274201055N00044570EA0060100740
B1105284201054N00044570EA0060100740
B1105294201053N00044570EA0060100740
B1105304201053N00044570EA0060100739
B1105314201053N00044570EA0060100739
B1105324201052N00044570EA0060100739
B1105334201053N00044569EA0060100739
B1105344201053N00044569EA0060100739
B1105354201053N00044569EA0060100739
B1105364201054N00044569EA0060100739
B1105374201054N00044569EA0060100738
B1105384201054N00044568EA0060100738
B1105394201054N00044568EA0060100739
B1105404201054N00044568EA0060100739
B1105414201054N00044568EA0060100739
B1105424201054N00044568EA0060100739
B1105434201054N00044568EA0060100739
B1105444201053N00044567EA0060100739
B1105454201053N00044567EA0060100738
B1105464201053N00044567EA0060100738
B1105474201053N00044568EA0060100738
B1105484201053N00044568EA0060100738
B1105494201053N00044568EA0060100738
B1105504201053N00044568EA0060100738
B1105514201053N00044568EA0060100738
B1105524201053N00044568EA0060100738
B1105534201053N00044567EA0060100738
B1105544201053N00044567EA0060100738
B1105554201053N00044567EA0060100737
B1105564201053N00044566EA0060100737
B1105574201054N00044565EA0060100737
B1105584201054N00044565EA0060100737
B1105594201053N00044565EA0060100737
B1106004201053N00044565EA0060100737
B1106014201053N00044565EA0060100737
B1106024201053N00044564EA0060100737
B1106034201053N00044564EA0060100737
B1106044201053N00044564EA0060100737
B1106054201053N00044564EA0060100737
B1106064201053N00044564EA0060100737
B1106074201053N00044564EA0060100737
B1106084201053N00044564EA0060000737
B1106094201053N00044565EA0060000737
B1106104201053N00044566EA0060000737
B1106114201053N00044567EA0060000737
B1106124201053N00044569EA0060000737
B1106134201053N00044570EA0060000737
B1106144201052N00044571EA0060000737
B1106154201052N00044572EA0060100737
B1106164201052N00044573EA0060100737
B1106174201052N00044574EA0060100737
B1106184201051N00044575EA0060100737
B1106194201051N00044576EA0060100736
B1106204201051N00044577EA0060100736
B1106214201050N00044578EA0060100736
B1106224201050N00044579EA0060100736
B1106234201050N00044580EA0060100736
B1106244201050N00044581EA0060100736
B1106254201050N00044581EA0060100736
B1106264201050N00044581EA0060100736
B1106274201050N00044581EA0060100736
B1106284201050N00044581EA0060100736
B1106294201050N00044582EA0060100736
B1106304201050N00044584EA0060100736
B1106314201050N00044585EA0060100736
B1106324201050N00044585EA0060100736
B1106334201049N00044586EA0060000736
B1106344201049N00044587EA0060000736
B1106354201049N00044589EA0060100736
B1106364201049N00044590EA0060000736
B1106374201048N00044591EA0060000736
B1106384201048N00044592EA0060000736
B1106394201048N00044593EA0060000736
B1106404201047N00044593EA0060000736
B1106414201047N00044594EA0060000736
B1106424201046N00044595EA0060000736
B1106434201046N00044597EA0060000736
B1106444201046N00044598EA0060000736
B1106454201046N00044599EA0060000737
B1106464201045N00044600EA0060000737
B1106474201045N00044601EA0060000737
B1106484201045N00044602EA0060000737
B1106494201044N00044603EA0060000738
B1106504201044N00044604EA0060000738
B1106514201043N00044605EA0060000737
B1106524201043N00044606EA0060000737
B1106534201043N00044607EA0060000737
B1106544201043N00044608EA0060000737
B1106554201042N00044609EA0060000737
B1106564201042N00044610EA0060000737
B1106574201042N00044611EA0060000737
B1106584201042N00044612EA0060000737
B1106594201042N00044613EA0060000738
B1107004201041N00044613EA0060000738
B1107014201041N00044615EA0060000738
B1107024201040N00044615EA0060000737
B1107034201040N00044616EA0060000737
B1107044201040N00044617EA0060000737
B1107054201040N00044618EA0060000738
B1107064201039N00044620EA0060000738
B1107074201040N00044620EA0060000738
B1107084201040N00044620EA0060000738
B1107094201040N00044619EA0060000738
B1107104201041N00044619EA0060000738
B1107114201041N00044619EA0060000738
B1107124201041N00044619EA0060000738
B1107134201041N00044619EA0060000738
B1107144201041N00044619EA0060000738
B1107154201041N00044619EA0060000738
B1107164201041N00044619EA0060000738
B1107174201041N00044619EA0060000738
B1107184201041N00044619EA0060000737
B1107194201041N00044619EA0060000737
B1107204201041N00044619EA0060000737
B1107214201041N00044619EA0060000737
B1107224201041N00044619EA0060000737
B1107234201041N00044618EA0060000737
B1107244201041N00044618EA0060100737
B1107254201041N00044618EA0060000737
B1107264201041N00044618EA0060000736
B1107274201041N00044618EA0060000736
B1107284201041N00044619EA0060000736
B1107294201041N00044619EA0060000736
B1107304201041N00044619EA0060000736
B1107314201041N00044619EA0060000736
B1107324201041N00044619EA0060000736
B1107334201041N00044619EA0060000736
B1107344201041N00044619EA0060000736
B1107354201041N00044619EA0060000736
B1107364201041N00044619EA0060000736
B1107374201041N00044619EA0060000736
B1107384201041N00044619EA0060000736
LXFM live.flymaster.net version 1.01
LXFM Created 2026-09-05 18:02:56
LXFM flight id 1844003
G63E5D7DB7E4C7E6E6F0EAE616A827FB0
